geometry,X,Y,School_Type,School_Name,Postal_Town
POINT (145.3643874 -38.084432),145.3643874,-38.084432,college,Hillcrest Christian College (Ayr Hill Campus),
POINT (-96.9814539 28.8155588),-96.9814539,28.8155588,college,Victoria College,
POINT (143.858787 -37.5611479),143.858787,-37.5611479,college,Arts Academy,
POINT (144.972154 -37.8103129),144.972154,-37.8103129,university,James Cook University,
POINT (145.1490967 -37.8768613),145.1490967,-37.8768613,college,Huanya Cultural Training Centre,
POINT (145.9330868 -38.1644448),145.9330868,-38.1644448,college,Tafe Gippsland,
POINT (144.970472 -37.8333125),144.970472,-37.8333125,college,Royal Australian College of General Practitioners,
POINT (144.9656975 -37.8065895),144.9656975,-37.8065895,university,RMIT Mosque / Islamic Centre,
POINT (144.9767802 -37.7983178),144.9767802,-37.7983178,college,Australian College of Complementary Medicine,
POINT (144.2815923 -36.7500371),144.2815923,-36.7500371,university,Monash University School of Rural Health,
POINT (142.9586284 -37.2796987),142.9586284,-37.2796987,university,NMIT Ararat Campus (Aradale),
POINT (142.952158 -38.1625177),142.952158,-38.1625177,college,Glenormiston College,
POINT (146.2789242 -38.1811367),146.2789242,-38.1811367,university,Monash University Dept of Rural & Indigenous Health,
POINT (144.97068 -37.829856),144.97068,-37.829856,college,Holmesglen (City Campus),
POINT (143.915296 -35.734908),143.915296,-35.734908,university,Kerang Public Library,
POINT (145.0115013 -37.666815),145.0115013,-37.666815,college,Peter Lalor Vocational College,
POINT (142.4828283 -38.3858744),142.4828283,-38.3858744,university,Deakin on Timor Warrnambool City Centre,
POINT (144.966742 -37.795561),144.966742,-37.795561,college,Australian College of Optometry,
POINT (-123.3705268 48.4268761),-123.3705268,48.4268761,college,Pacific Design Academy,
POINT (144.9663088 -37.8165633),144.9663088,-37.8165633,college,Australian College of Hair Design And Beauty,
POINT (144.7996112 -37.7425509),144.7996112,-37.7425509,college,Ames,
POINT (144.9595971 -37.8330519),144.9595971,-37.8330519,college,Afi,
POINT (144.9587777 -37.8308177),144.9587777,-37.8308177,college,Evolve College,
POINT (145.055176 -37.968916),145.055176,-37.968916,college,Floral Arts School Of Australia,
POINT (-99.1304217 23.7394122),-99.1304217,23.7394122,university,ICEST,
POINT (-99.1441857 23.7333949),-99.1441857,23.7333949,university,Universidad del Valle de México,
POINT (-99.1448114 23.7329838),-99.1448114,23.7329838,university,Rectoría Universidad Autónoma de Tamaulipas,
POINT (-99.1254014 23.7202582),-99.1254014,23.7202582,university,Normal Superior de Tamaulipas,
POINT (145.0495478 -37.7203765),145.0495478,-37.7203765,college,LaTrobe Business School,
POINT (145.119577 -37.9246578),145.119577,-37.9246578,college,Study Hub,
POINT (145.1532171 -37.9448776),145.1532171,-37.9448776,college,Skills Plus,
POINT (145.1526614 -37.9513504),145.1526614,-37.9513504,college,James And Coaching College,
POINT (-123.3683789 48.4238019),-123.3683789,48.4238019,college,Inlingua,
POINT (145.1521092 -37.9574909),145.1521092,-37.9574909,college,Maths Tuition,
POINT (145.1745496 -37.9667692),145.1745496,-37.9667692,college,Emerge Training & Consulting,
POINT (145.212594 -37.990729),145.212594,-37.990729,college,Health Arts College,
POINT (145.2131648 -37.9880586),145.2131648,-37.9880586,college,Complex Institute Of Education,
POINT (145.0644264 -37.8903046),145.0644264,-37.8903046,college,Scope,
POINT (145.1603866 -37.9632099),145.1603866,-37.9632099,college,Maths Tuition Dạy Kèm Toán,
POINT (145.2118835 -37.9835099),145.2118835,-37.9835099,college,Bri Training,
POINT (145.2118639 -37.9833926),145.2118639,-37.9833926,college,Angel Institute of Education,
POINT (144.282538 -36.7499918),144.282538,-36.7499918,university,La Trobe University,
POINT (144.4432328 -37.6768169),144.4432328,-37.6768169,college,The Laurels,
POINT (145.0428011 -37.5051521),145.0428011,-37.5051521,college,NMIT Eden Park Campus,
POINT (144.9470675 -37.8029982),144.9470675,-37.8029982,college,Bastow Institute,
POINT (145.1523109 -37.9449071),145.1523109,-37.9449071,college,Chisholm,
POINT (145.1510151 -37.9450738),145.1510151,-37.9450738,college,ECCS Training Centre,
POINT (145.1528618 -37.9448483),145.1528618,-37.9448483,college,James An,
POINT (145.1522911 -37.945272),145.1522911,-37.945272,college,Edu Kingdom College,
POINT (-67.1515441 18.40226),-67.1515441,18.40226,university,CTMAPR,
POINT (145.0044896 -37.7371387),145.0044896,-37.7371387,college,James An College,
POINT (145.004433 -37.7371292),145.004433,-37.7371292,college,Australia Asia Education,
POINT (145.0041313 -37.7471696),145.0041313,-37.7471696,college,St John’s College,
POINT (144.999049 -37.7664138),144.999049,-37.7664138,college,Bright Institute,
POINT (145.2026438 -37.9681308),145.2026438,-37.9681308,college,Roshchem,
POINT (145.0900832 -37.8980611),145.0900832,-37.8980611,college,Edu Kingdom College,
POINT (144.7741065 -37.7713244),144.7741065,-37.7713244,college,Kumon,
POINT (144.8945279 -37.7993041),144.8945279,-37.7993041,college,AMES Australia,
POINT (144.8925207 -37.7217466),144.8925207,-37.7217466,college,Fly Amber,
POINT (144.9537495 -37.812867),144.9537495,-37.812867,college,William Angliss Institute,
POINT (144.9725205 -37.813534),144.9725205,-37.813534,university,Monash University - City Campus,
POINT (145.0334936 -37.9778321),145.0334936,-37.9778321,college,Beaumaris Secondary College,
POINT (144.9657385 -37.8064173),144.9657385,-37.8064173,university,RMIT City Campus Children's Centre,
POINT (144.9659 -37.8055547),144.9659,-37.8055547,university,RMIT Electric Racing,
POINT (144.9659401 -37.8051408),144.9659401,-37.8051408,university,RMIT Building 56,
POINT (-96.9759693 28.8109678),-96.9759693,28.8109678,university,Jaguar Village,
POINT (145.9642761 -38.4786785),145.9642761,-38.4786785,college,TAFE Gippsland Leongatha Campus,
POINT (144.8827332 -37.8472165),144.8827332,-37.8472165,college,Rail Academy Newport,
POINT (144.9295311 -37.7991253),144.9295311,-37.7991253,college,Metro Academy,
POINT (144.9645028 -37.8070847),144.9645028,-37.8070847,college,Building 51 RMIT,
POINT (144.9608596 -37.8075506),144.9608596,-37.8075506,college,Australian National College,
POINT (144.9391231 -37.7975704),144.9391231,-37.7975704,college,Barkly International College,
POINT (145.2831034 -37.8011259),145.2831034,-37.8011259,college,U3A Croydon,
POINT (144.9643338 -37.8000374),144.9643338,-37.8000374,university,Telstra Creator Space,
POINT (144.9681039 -37.8246942),144.9681039,-37.8246942,university,Wilin Centre,
,146.6666,-38.61771,Primary,Alberton Primary School,ALBERTON
,142.59039,-38.38628,Primary,Allansford and District Primary School,ALLANSFORD
,143.47565,-37.0845,Primary,Avoca Primary School,AVOCA
,145.23472,-36.90137,Primary,Avenel Primary School,AVENEL
,145.21398,-37.74268,Primary,Warrandyte Primary School,WARRANDYTE
,144.3421,-38.17067,Primary,Belmont Primary School,BELMONT
,144.44312,-37.67303,Primary,Bacchus Marsh Primary School,Bacchus Marsh
,143.85394,-37.56401,Primary,Ballarat Primary School (Dana Street),BALLARAT
,146.88982,-36.12921,Primary,Wodonga Primary School,WODONGA
,145.35442,-38.04409,Primary,Berwick Primary School,Berwick
,143.38172,-37.43852,Primary,Beaufort Primary School,BEAUFORT
,145.05463,-37.96861,Primary,Cheltenham Primary School,CHELTENHAM
,142.65084,-38.34794,Primary,Cudgee Primary School,CUDGEE
,144.87834,-37.83842,Primary,Newport Lakes Primary School,NEWPORT
,142.03989,-37.53087,Primary,Cavendish Primary School,CAVENDISH
,143.59834,-38.33722,Primary,Colac Primary School,COLAC
,144.22233,-37.0666,Primary,Castlemaine Primary School,CASTLEMAINE
,144.20466,-37.09293,Primary,Campbells Creek Primary School,CAMPBELLS CREEK
,143.89156,-37.42411,Primary,Creswick Primary School,CRESWICK
,144.24986,-36.73321,Primary,California Gully Primary School,CALIFORNIA GULLY
,145.26983,-37.60232,Primary,St Andrews Primary School,ST ANDREWS
,142.4668,-38.36634,Primary,Warrnambool West Primary School,WARRNAMBOOL
,144.95965,-38.33964,Primary,Dromana Primary School,DROMANA
,145.12967,-37.7868,Primary,Doncaster Primary School,"Westfield, Doncaster"
,144.74746,-36.1282,Primary,Echuca Primary School,ECHUCA
,145.1478,-37.72498,Primary,Eltham Primary School,ELTHAM
,144.25426,-36.72058,Primary,Eaglehawk Primary School,EAGLEHAWK
,144.3329,-37.105,Primary,Elphinstone Primary School,ELPHINSTONE
,145.25824,-38.00176,Primary,Hallam Primary School,HALLAM
,144.93392,-37.78067,Primary,Flemington Primary School,FLEMINGTON
,144.89267,-37.79838,Primary,Footscray Primary School,WEST FOOTSCRAY
,144.58844,-37.49086,Primary,Gisborne Primary School,GISBORNE
,145.00947,-37.94704,Primary,Sandringham Primary School,SANDRINGHAM
,146.98292,-36.76886,Primary,Wandiligong Primary School,BRIGHT
,144.34776,-38.19764,Primary,Grovedale Primary School,GROVEDALE
,145.01838,-37.82011,Primary,Hawthorn West Primary School,HAWTHORN
,145.0678,-37.7547,Primary,Heidelberg Primary School,HEIDELBERG
,142.02138,-37.74491,Primary,Hamilton (Gray Street) Primary School,HAMILTON
,144.70685,-36.92401,Primary,Heathcote Primary School,HEATHCOTE
,144.31708,-38.17216,Primary,Highton Primary School,HIGHTON
,144.3344,-36.66254,Primary,Huntly Primary School,HUNTLY
,144.263,-38.33364,Primary,Bellbrae Primary School,BELLBRAE
,146.6066,-36.14707,Primary,Chiltern Primary School,CHILTERN
,144.46269,-37.24889,Primary,Kyneton Primary School,KYNETON
,144.74538,-37.35418,Primary,Romsey Primary School,ROMSEY
,143.98214,-38.01399,Primary,Shelford Primary School,SHELFORD
,144.15675,-36.8416,Primary,Lockwood South Primary School,LOCKWOOD SOUTH
,144.13537,-36.73568,Primary,Marong Primary School,MARONG
,144.58413,-37.40479,Primary,Mount Macedon Primary School,MOUNT MACEDON
,143.86837,-37.60474,Primary,Mount Clear Primary School,MOUNT CLEAR
,144.58702,-37.68046,Primary,Melton Primary School,MELTON
,144.98151,-37.7996,Primary,Fitzroy Primary School,FITZROY
,144.06719,-37.10592,Primary,Newstead Primary School,NEWSTEAD
,143.98443,-37.41202,Primary,Newlyn Primary School,NEWLYN
,145.15181,-37.85973,Primary,Burwood East Primary School,GLEN WAVERLEY
,144.59658,-37.46289,Primary,New Gisborne Primary School,NEW GISBORNE
,143.64428,-38.19397,Primary,Beeac Primary School,BEEAC
,144.92104,-37.7531,Primary,Essendon Primary School,ESSENDON
,144.96821,-37.7413,Primary,Coburg Primary School,COBURG
,142.29133,-37.87918,Primary,Penshurst Primary School,PENSHURST
,144.34632,-37.61972,Primary,Myrniong Primary School,MYRNIONG
,145.09224,-37.5946,Primary,Mernda Primary School,MERNDA
,141.59941,-38.3473,Primary,Portland Primary School,PORTLAND
,142.77378,-37.05613,Primary,Stawell Primary School,STAWELL
,146.46061,-36.05621,Primary,Rutherglen Primary School,RUTHERGLEN
,144.67978,-37.46122,Primary,Riddells Creek Primary School,RIDDELLS CREEK
,143.72281,-37.90366,Primary,Rokewood Primary School,ROKEWOOD
,144.38277,-38.17551,Primary,Geelong East Primary School,GEELONG EAST
,147.07364,-38.1083,Primary,Sale Primary School,SALE
,143.36816,-37.68686,Primary,Skipton Primary School,SKIPTON
,144.98562,-37.84135,Primary,South Yarra Primary School,SOUTH YARRA
,147.08539,-37.96725,Primary,Stratford Primary School,STRATFORD
,144.35106,-37.14131,Primary,Taradale Primary School,TARADALE
,142.3687,-38.29244,Primary,Koroit And District Primary School,KOROIT
,144.40878,-37.32497,Primary,Tylden Primary School,TYLDEN
,145.0115,-37.68227,Primary,Thomastown Primary School,THOMASTOWN
,146.32942,-36.35528,Primary,Wangaratta Primary School,WANGARATTA
,146.39792,-36.01365,Primary,Wahgunyah Primary School,WAHGUNYAH
,144.53294,-37.35342,Primary,Woodend Primary School,WOODEND
,142.4845,-38.31681,Primary,Woodford Primary School,WOODFORD
,144.65874,-37.90687,Primary,Werribee Primary School,WERRIBEE
,144.20749,-37.07016,Primary,Winters Flat Primary School,CASTLEMAINE
,146.73088,-36.29048,Primary,Wooragee Primary School,Beechworth
,144.97504,-37.41146,Primary,Wallan Primary School,WALLAN
,142.43176,-38.18741,Primary,Woolsthorpe Primary School,WOOLSTHORPE
,144.08844,-37.214,Primary,Yandoit Primary School,Yandoit
,146.67532,-38.55853,Primary,Yarram Primary School,YARRAM
,143.8385,-37.55633,Primary,Pleasant Street Primary School (Ballarat),LAKE WENDOUREE
,145.4283,-37.21273,Primary,Yea Primary School,YEA
,144.72642,-37.27495,Primary,Lancefield Primary School,LANCEFIELD
,144.47831,-37.61379,Primary,Coimadai Primary School,COIMADAI
,143.78651,-38.34046,Primary,Birregurra Primary School,BIRREGURRA
,145.12267,-37.91194,Primary,Clayton North Primary School,CLAYTON
,146.43248,-36.44454,Primary,Milawa Primary School,MILAWA
,144.16156,-36.80258,Primary,Lockwood Primary School,LOCKWOOD
,143.5519,-36.78994,Primary,Bealiba Primary School,BEALIBA
,147.62323,-37.82742,Primary,Bairnsdale Primary School,BAIRNSDALE
,144.10505,-37.58385,Primary,Gordon Primary School,GORDON
,144.13276,-37.30972,Primary,Hepburn Primary School,HEPBURN
,144.39564,-38.0304,Primary,Lara Lake Primary School,LARA LAKE
,146.7739,-38.1546,Primary,Rosedale Primary School,ROSEDALE
,146.96093,-36.7331,Pri/Sec,Bright P-12 College,BRIGHT
,144.698,-36.3546,Primary,Rochester Primary School,ROCHESTER
,142.93731,-37.28594,Primary,Ararat Primary School,ARARAT
,146.14,-37.30126,Primary,Jamieson Primary School,JAMIESON
,145.00745,-37.74787,Primary,Preston South Primary School,PRESTON
,147.59308,-37.10022,Primary,Omeo Primary School,OMEO
,147.06494,-36.88771,Primary,Harrietville Primary School,HARRIETVILLE
,145.08881,-38.00558,Primary,Mordialloc Beach Primary School,Mordialloc
,145.51604,-37.65713,Primary,Healesville Primary School,HEALESVILLE
,142.8379,-37.72024,Pri/Sec,Lake Bolac College,LAKE BOLAC
,146.62518,-38.05697,Primary,Toongabbie Primary School,TOONGABBIE
,143.63446,-37.35384,Primary,Waubra Primary School,WAUBRA
,142.85173,-37.14851,Primary,Great Western Primary School,GREAT WESTERN
,146.97677,-37.964,Primary,Maffra Primary School,MAFFRA
,145.88923,-36.42328,Primary,Broken Creek Primary School,Broken Creek
,144.01071,-37.67672,Primary,Lal Lal Primary School,LAL LAL
,143.07812,-38.32712,Primary,Cobden Primary School,COBDEN
,144.71475,-38.17184,Primary,St Leonards Primary School,ST LEONARDS
,145.35407,-37.75367,Primary,Lilydale Primary School,Lilydale
,144.26524,-36.75702,Primary,Bendigo Primary School,BENDIGO
,144.89357,-37.40103,Primary,Darraweit Guim Primary School,DARRAWEIT GUIM
,143.56131,-37.68407,Primary,Linton Primary School,LINTON
,143.87458,-37.52053,Primary,Invermay Primary School,INVERMAY
,147.37948,-36.53341,Primary,Mitta Mitta Primary School,MITTA MITTA
,145.05805,-37.83268,Primary,Camberwell Primary School,CAMBERWELL
,144.88618,-37.63983,Primary,Greenvale Primary School,GREENVALE
,145.7117,-37.19257,Primary,Alexandra Primary School,ALEXANDRA
,144.6619,-37.73215,Primary,Rockbank Primary School,MELTON
,144.16067,-38.042,Pri/Sec,Bannockburn P-12 College,BANNOCKBURN
,145.14554,-37.60601,Primary,Doreen Primary School,DOREEN
,143.7036,-37.16865,Primary,Talbot Primary School,TALBOT
,145.37241,-37.6497,Primary,Yarra Glen Primary School,Yarra Glen
,144.23409,-36.78768,Primary,Kangaroo Flat Primary School,KANGAROO FLAT
,144.8957,-37.67565,Primary,Westmeadows Primary School,Westmeadows
,144.72814,-37.59769,Primary,Sunbury Primary School,SUNBURY
,145.15165,-37.67185,Primary,Diamond Creek Primary School,DIAMOND CREEK
,144.61978,-37.34781,Primary,Hesket Primary School,Woodend
,144.50146,-36.78623,Primary,Axedale Primary School,AXEDALE
,145.1943,-37.83736,Primary,Vermont Primary School,VERMONT
,143.8284,-36.77126,Primary,Tarnagulla Primary School,TARNAGULLA
,145.08138,-37.81394,Primary,Balwyn Primary School,BALWYN
,145.2275,-37.89395,Primary,Scoresby Primary School,SCORESBY
,143.81266,-37.05206,Primary,Carisbrook Primary School,CARISBROOK
,145.43595,-37.79025,Primary,Wandin Yallock Primary School,WANDIN NORTH
,145.38222,-37.70535,Primary,Yering Primary School,Coldstream
,141.27673,-37.92302,Primary,Dartmoor Primary School,DARTMOOR
,144.87655,-37.5635,Primary,Mickleham Primary School,MICKLEHAM
,143.87045,-36.57394,Primary,Inglewood Primary School,INGLEWOOD
,144.26116,-37.08233,Primary,Chewton Primary School,CHEWTON
,144.7454,-37.43373,Primary,Bolinda Primary School,BOLINDA
,143.82646,-37.67863,Primary,Napoleons Primary School,NAPOLEONS
,145.03339,-37.80364,Primary,Kew Primary School,KEW
,143.72171,-37.58864,Primary,Haddon Primary School,HADDON
,142.73253,-38.32935,Primary,Panmure Primary School,PANMURE
,144.74069,-38.34148,Primary,Sorrento Primary School,SORRENTO
,143.8021,-37.5548,Primary,Alfredton Primary School,ALFREDTON
,143.94592,-36.6031,Primary,Bridgewater Primary School,BRIDGEWATER
,145.18947,-38.2997,Primary,Hastings Primary School,HASTINGS
,146.83646,-36.3121,Primary,Yackandandah Primary School,YACKANDANDAH
,145.15723,-36.78759,Primary,Nagambie Primary School,NAGAMBIE
,146.78494,-37.98211,Primary,Heyfield Primary School,HEYFIELD
,145.03959,-37.94202,Primary,Moorabbin Primary School,MOORABBIN
,146.08482,-37.05559,Primary,Mansfield Primary School,MANSFIELD
,146.72484,-36.15601,Primary,Middle Indigo Primary School,Indigo Valley
,147.06784,-37.8428,Primary,Briagolong Primary School,BRIAGOLONG
,147.45327,-37.80088,Primary,Lindenow Primary School,LINDENOW
,145.0463,-37.20257,Primary,Broadford Primary School,BROADFORD
,145.21429,-36.61718,Primary,Murchison Primary School,MURCHISON
,145.23956,-37.64161,Primary,Panton Hill Primary School,PANTON HILL
,143.9348,-37.52478,Primary,Glen Park Primary School,GLEN PARK
,142.82232,-37.04956,Primary,Concongella Primary School,CONCONGELLA
,147.83349,-37.70421,Primary,Bruthen Primary School,BRUTHEN
,143.54325,-35.34691,Primary,Swan Hill Primary School,SWAN HILL
,146.91102,-36.69949,Primary,Porepunkah Primary School,POREPUNKAH
,144.46437,-38.18726,Primary,Leopold Primary School,LEOPOLD
,144.05469,-38.10094,Primary,Inverleigh Primary School,INVERLEIGH
,145.06589,-37.86048,Primary,Glen Iris Primary School,GLEN IRIS
,143.46986,-37.43773,Primary,Trawalla Primary School,TRAWALLA
,144.27998,-36.77512,Primary,Quarry Hill Primary School,BENDIGO DC
,143.84472,-37.59643,Primary,Sebastopol Primary School,SEBASTOPOL
,146.87674,-38.52633,Primary,Woodside Primary School,WOODSIDE
,142.92873,-38.19075,Primary,Noorat Primary School,NOORAT
,144.95277,-37.84188,Primary,Albert Park Primary School,ALBERT PARK
,144.90041,-37.8638,Primary,Williamstown Primary School,WILLIAMSTOWN
,144.88711,-38.41198,Primary,Boneo Primary School,RYE
,144.65621,-38.26722,Primary,Queenscliff Primary School,QUEENSCLIFF
,141.57233,-38.31764,Primary,Portland North Primary School,PORTLAND NORTH
,143.71199,-36.98422,Primary,Timor Primary School,TIMOR
,141.08249,-36.97371,Primary,Apsley Primary School,APSLEY
,144.35291,-36.80436,Primary,Strathfieldsaye Primary School,STRATHFIELDSAYE
,145.20124,-38.11771,Primary,Skye Primary School,Carrum Downs
,144.79814,-37.03978,Primary,Tooborac Primary School,TOOBORAC
,147.63075,-37.81267,Primary,Lucknow Primary School,Bairnsdale
,145.05787,-37.42371,Primary,Upper Plenty Primary School,Wallan
,144.97303,-37.79106,Primary,Carlton North Primary School,CARLTON NORTH
,144.06581,-36.99504,Primary,Maldon Primary School,MALDON
,145.53269,-37.77737,Primary,Woori Yallock Primary School,WOORI YALLOCK
,142.76785,-37.30166,Primary,Moyston Primary School,Moyston
,143.88625,-37.65423,Primary,Buninyong Primary School,BUNINYONG
,145.74894,-37.51198,Primary,Marysville Primary School,MARYSVILLE
,144.48966,-37.17118,Primary,Langley Primary School,LANGLEY
,145.02786,-37.3603,Primary,Wandong Primary School,WANDONG
,145.24131,-38.45628,Primary,Cowes Primary School,COWES
,144.21822,-37.40538,Primary,Bullarto Primary School,BULLARTO
,143.3393,-37.9546,Primary,Lismore Primary School,LISMORE
,145.1155,-37.72617,Primary,Lower Plenty Primary School,LOWER PLENTY
,144.24834,-36.76187,Primary,Specimen Hill Primary School,GOLDEN SQUARE
,141.6138,-38.28161,Primary,Bolwarra Primary School,BOLWARRA
,143.11134,-36.90074,Primary,Navarre Primary School,NAVARRE
,142.39126,-36.25788,Primary,Warracknabeal Primary School,WARRACKNABEAL
,146.38309,-36.59317,Primary,Moyhu Primary School,MOYHU
,143.468,-36.94213,Primary,Natte Yallock Primary School,NATTE YALLOCK
,144.98925,-37.79231,Primary,Clifton Hill Primary School,CLIFTON HILL
,145.3042,-37.65352,Primary,Christmas Hills Primary School,CHRISTMAS HILLS
,147.1742,-36.2148,Primary,Tallangatta Primary School,TALLANGATTA
,145.43115,-36.4527,Primary,Kialla Central Primary School,KIALLA
,145.09219,-38.19539,Primary,Mount Eliza Primary School,MOUNT ELIZA
,145.36945,-38.52385,Primary,San Remo Primary School,San Remo
,142.0304,-36.45336,Primary,Dimboola Primary School,DIMBOOLA
,146.58665,-36.50544,Primary,Whorouly Primary School,WHOROULY
,146.25688,-37.1028,Primary,Merrijig Primary School,Merrijig
,144.13456,-37.96906,Primary,Lethbridge Primary School,LETHBRIDGE
,146.36064,-36.44156,Primary,Oxley Primary School,Oxley
,144.99688,-37.77176,Primary,Northcote Primary School,NORTHCOTE
,144.95064,-37.79873,Primary,North Melbourne Primary School,NORTH MELBOURNE
,145.21982,-37.98792,Primary,Dandenong Primary School,DANDENONG
,144.38694,-37.18732,Primary,Malmsbury Primary School,MALMSBURY
,144.89176,-37.8559,Primary,Williamstown North Primary School,WILLIAMSTOWN
,143.92114,-35.73169,Primary,Kerang Primary School,KERANG
,145.87172,-38.08711,Primary,Drouin West Primary School,DROUIN
,144.07781,-37.84271,Primary,Meredith Primary School,MEREDITH
,146.44881,-36.70647,Primary,Edi Upper Primary School,EDI UPPER
,144.23727,-36.70707,Primary,Eaglehawk North Primary School,EAGLEHAWK
,145.36029,-36.39136,Primary,Mooroopna Primary School,MOOROOPNA
,144.788,-37.75885,Primary,Cairnlea Park Primary School,CAIRNLEA
,144.2311,-37.60168,Primary,Ballan Primary School,BALLAN
,143.85781,-37.57836,Primary,Mount Pleasant Primary School,BALLARAT
,145.22992,-36.44497,Primary,Tatura Primary School,TATURA
,145.34418,-36.49052,Primary,Toolamba Primary School,TOOLAMBA
,145.14175,-36.46986,Primary,Harston Primary School,TATURA
,146.89257,-36.31716,Primary,Osbornes Flat Primary School,OSBORNES FLAT
,145.12403,-38.14756,Primary,Frankston Primary School,FRANKSTON EAST LPO
,142.98463,-36.36721,Primary,Donald Primary School,DONALD
,144.97776,-37.47206,Primary,Beveridge Primary School,BEVERIDGE
,144.98902,-37.87022,Primary,St Kilda Primary School,ST KILDA
,143.60821,-37.79196,Primary,Cape Clear Primary School,Cape Clear
,145.7017,-37.7558,Primary,Warburton Primary School,WARBURTON
,145.10067,-37.09676,Primary,Tallarook Primary School,TALLAROOK
,146.67589,-36.10131,Primary,Barnawartha Primary School,BARNAWARTHA
,144.98415,-37.78502,Primary,Fitzroy North Primary School,FITZROY NORTH
,144.3471,-38.13856,Primary,Ashby Primary School,GEELONG WEST
,145.01031,-37.73055,Primary,Preston Primary School,PRESTON
,145.37849,-38.20763,Primary,Tooradin Primary School,TOORADIN
,145.03397,-37.82405,Primary,Glenferrie Primary School,HAWTHORN
,144.60891,-36.4972,Primary,Elmore Primary School,ELMORE
,145.68279,-36.33107,Primary,Dookie Primary School,DOOKIE
,145.00108,-37.91221,Primary,Brighton Primary School,BRIGHTON
,141.9505,-36.74124,Primary,Natimuk Primary School,NATIMUK
,142.47574,-36.6235,Pri/Sec,Murtoa College,MURTOA
,144.24247,-36.83058,Primary,Big Hill Primary School,Big Hill
,143.79211,-37.29075,Primary,Clunes Primary School,CLUNES
,142.87035,-36.67685,Primary,Marnoo Primary School,MARNOO
,146.69357,-36.35543,Primary,Beechworth Primary School,BEECHWORTH
,145.31307,-36.38546,Primary,Ardmona Primary School,ARDMONA
,144.94752,-37.29577,Primary,Kilmore Primary School,KILMORE
,142.00147,-38.03088,Primary,Macarthur Primary School,MACARTHUR
,144.48704,-38.28119,Primary,Barwon Heads Primary School,BARWON HEADS
,144.8357,-37.7169,Primary,Keilor Primary School,KEILOR
,143.73358,-36.85155,Primary,Dunolly Primary School,DUNOLLY
,146.4681,-36.18467,Primary,Springhurst Primary School,SPRINGHURST
,144.3281,-37.38797,Primary,Trentham District Primary School,TRENTHAM
,143.92743,-37.5741,Primary,Warrenheip Primary School,WARRENHEIP
,144.2097,-36.74419,Primary,Maiden Gully Primary School,MAIDEN GULLY
,142.62861,-36.63222,Primary,Rupanyup Primary School,RUPANYUP
,144.50468,-36.617,Primary,Goornong Primary School,GOORNONG
,145.08862,-37.89447,Primary,Oakleigh Primary School,OAKLEIGH
,144.26673,-38.17355,Primary,Ceres Primary School,CERES
,145.0344,-37.85601,Primary,Malvern Central School,MALVERN
,144.14156,-37.3451,Primary,Daylesford Primary School,DAYLESFORD
,145.29849,-36.32914,Primary,Mooroopna North Primary School,MOOROOPNA
,147.86479,-37.82108,Primary,Swan Reach Primary School,SWAN REACH
,143.39924,-37.18413,Primary,Amphitheatre Primary School,AMPHITHEATRE
,143.88575,-38.39988,Primary,Deans Marsh Primary School,DEANS MARSH
,144.57175,-38.16916,Primary,Drysdale Primary School,DRYSDALE
,143.25754,-36.6102,Primary,St Arnaud Primary School,St Arnaud
,142.73443,-38.46676,Primary,Nullawarre and District Primary School,NULLAWARRE
,144.56268,-37.41869,Primary,Macedon Primary School,MACEDON
,145.2025,-37.579,Primary,Arthurs Creek Primary School,ARTHURS CREEK
,144.82382,-38.37312,Primary,Rye Primary School,RYE
,145.70905,-37.4214,Primary,Buxton Primary School,Buxton
,143.32074,-36.98986,Primary,Moonambel Primary School,MOONAMBEL
,147.08841,-38.16956,Primary,Longford Primary School,Longford
,145.34517,-38.00085,Primary,Harkaway Primary School,HARKAWAY
,145.12282,-38.37672,Primary,Balnarring Primary School,BALNARRING
,146.46086,-36.3289,Primary,Carraragarmungee Primary School,Londrigan via Wangaratta
,145.57208,-36.75596,Primary,Euroa Primary School,EUROA
,144.11368,-36.04736,Pri/Sec,Pyramid Hill College,PYRAMID HILL
,145.47925,-36.39993,Primary,Shepparton East Primary School,SHEPPARTON EAST
,147.74791,-37.81578,Primary,Nicholson Primary School,NICHOLSON
,145.38946,-36.46601,Primary,Kialla West Primary School,KIALLA WEST
,143.7947,-37.47788,Primary,Miners Rest Primary School,MINERS REST
,146.22234,-36.46019,Primary,Glenrowan Primary School,GLENROWAN
,142.48257,-38.37728,Primary,Warrnambool Primary School,WARRNAMBOOL
,145.89434,-36.32654,Primary,Devenish Primary School,DEVENISH
,145.21893,-36.27636,Primary,Undera Primary School,UNDERA
,147.01531,-36.46925,Primary,Dederang Primary School,DEDERANG
,144.38773,-36.84177,Primary,Eppalock Primary School,"AXE CREEK, via Strathfieldsaye"
,145.42132,-37.8246,Primary,Silvan Primary School,SILVAN
,143.82816,-37.53928,Primary,Wendouree Primary School,Wendouree
,145.13282,-36.31325,Primary,Lancaster Primary School,LANCASTER
,144.2048,-36.53947,Primary,Raywood Primary School,RAYWOOD
,145.03351,-37.00263,Primary,Puckapunyal Primary School,PUCKAPUNYAL
,143.13591,-37.00586,Primary,Landsborough Primary School,LANDSBOROUGH
,145.27623,-37.9116,Primary,Lysterfield Primary School,ROWVILLE
,146.08134,-36.51633,Primary,Winton Primary School,WINTON
,145.12966,-36.36932,Primary,Merrigum Primary School,MERRIGUM
,147.09576,-36.12064,Primary,Bethanga Primary School,BETHANGA
,144.99881,-37.80898,Primary,Abbotsford Primary School,ABBOTSFORD
,144.3372,-38.14577,Primary,Newtown Primary School,NEWTOWN
,144.99569,-37.8573,Primary,Windsor Primary School,WINDSOR
,145.31692,-37.97859,Primary,Narre Warren North Primary School,NARRE  WARREN  NORTH
,148.18082,-37.49774,Primary,Buchan Primary School,BUCHAN
,144.25511,-37.91267,Primary,Anakie Primary School,Anakie
,144.42431,-38.17096,Primary,Moolap Primary School,MOOLAP
,144.90025,-37.8064,Primary,Footscray City Primary School,Footscray
,144.59476,-37.31215,Primary,Newham Primary School,NEWHAM
,145.07694,-37.66973,Primary,Plenty Parklands Primary School,MILL PARK
,144.30415,-36.72794,Primary,White Hills Primary School,WHITE HILLS
,144.10217,-37.62852,Primary,Mount Egerton Primary School,Mount Egerton
,145.85384,-38.13286,Primary,Drouin Primary School,DROUIN
,145.4306,-36.15066,Primary,Wunghnu Primary School,WUNGHNU
,142.85847,-37.4328,Primary,Maroona Primary School,MAROONA
,145.90113,-38.02762,Primary,Jindivick Primary School,JINDIVICK
,147.15915,-36.0658,Primary,Talgarno Primary School,TALGARNO
,144.0071,-37.55759,Primary,Bungaree Primary School,Bungaree
,144.50037,-37.96501,Primary,Little River Primary School,LITTLE RIVER
,146.69896,-38.0137,Primary,Cowwarr Primary School,COWWARR
,145.09467,-37.65287,Primary,Morang South Primary School,SOUTH MORANG
,144.27804,-36.75571,Primary,Camp Hill Primary School,BENDIGO
,144.85709,-37.11724,Primary,Pyalong Primary School,PYALONG
,143.98428,-38.24449,Primary,Winchelsea Primary School,WINCHELSEA
,145.93817,-38.09935,Primary,Buln Buln Primary School,BULN BULN
,143.85749,-37.55115,Primary,Macarthur Street Primary School,SOLDIERS HILL
,143.5837,-38.36135,Primary,Elliminyt Primary School,COLAC
,145.04309,-38.22181,Primary,Mornington Primary School,MORNINGTON
,141.99515,-37.72646,Primary,Hamilton North Primary School,HAMILTON
,143.78644,-37.42924,Primary,Mount Blowhard Primary School,BLOWHARD
,143.89082,-37.40884,Primary,Creswick North Primary School,CRESWICK
,143.86978,-37.54984,Primary,Black Hill Primary School,BALLARAT
,144.99611,-37.9221,Primary,Brighton Beach Primary School,BRIGHTON
,144.21899,-37.05783,Primary,Castlemaine North Primary School,CASTLEMAINE
,145.1331,-37.64124,Primary,Yarrambat Primary School,YARRAMBAT
,141.4052,-37.58655,Primary,Casterton Primary School,CASTERTON
,145.20589,-36.05752,Primary,Nathalia Primary School,NATHALIA
,144.34538,-38.15511,Primary,Chilwell Primary School,NEWTOWN
,145.1005,-37.70357,Primary,Greensborough Primary School,GREENSBOROUGH
,144.05459,-38.02923,Primary,Teesdale Primary School,TEESDALE
,145.28785,-38.11186,Primary,Cranbourne Primary School,CRANBOURNE
,145.6853,-36.07735,Primary,Katamatite Primary School,Katamatite
,143.17502,-37.36404,Primary,Buangor Primary School,BUANGOR
,144.30209,-35.90955,Primary,Leitchville Primary School,LEITCHVILLE
,145.11405,-37.51427,Primary,Whittlesea Primary School,WHITTLESEA
,143.89506,-37.5429,Primary,Little Bendigo Primary School,Nerrina
,143.83122,-37.56602,Primary,Newington Primary School,BALLARAT
,145.92814,-38.15634,Primary,Warragul Primary School,WARRAGUL
,145.21466,-37.69174,Primary,Kangaroo Ground Primary School,KANGAROO GROUND
,146.54015,-38.29726,Primary,Traralgon South Primary School,TRARALGON SOUTH
,141.68404,-37.60184,Primary,Coleraine Primary School,Coleraine
,145.75849,-38.20349,Primary,Ripplebrook Primary School,RIPPLEBROOK
,145.445,-36.09024,Primary,Numurkah Primary School,NUMURKAH
,146.26435,-38.17471,Primary,Moe (Albert Street) Primary School,MOE
,144.35857,-38.15694,Primary,Geelong South Primary School,GEELONG
,145.25936,-37.8433,Primary,Bayswater Primary School,BAYSWATER
,142.5841,-36.46271,Primary,Minyip Primary School,MINYIP
,145.19737,-37.93295,Primary,Mulgrave Primary School,MULGRAVE
,146.06096,-38.20937,Primary,Yarragon Primary School,YARRAGON
,146.47754,-38.14911,Primary,Tyers Primary School,TYERS
,146.15987,-38.21476,Primary,Trafalgar Primary School,TRAFALGAR
,145.35664,-37.52157,Primary,Kinglake Primary School,KINGLAKE
,145.93563,-38.24023,Primary,Ellinbank Primary School,ELLINBANK
,147.8452,-37.7662,Primary,Tambo Upper Primary School,BRUTHEN
,146.94812,-36.18053,Primary,Baranduda Primary School,BARANDUDA
,145.87947,-36.16131,Primary,Tungamah Primary School,TUNGAMAH
,145.71251,-38.09884,Primary,Bunyip Primary School,BUNYIP
,144.37232,-35.95463,Primary,Gunbower Primary School,GUNBOWER
,145.57401,-38.08277,Primary,Nar Nar Goon Primary School,NAR NAR GOON
,146.32799,-38.66352,Primary,Toora Primary School,TOORA
,145.34369,-37.8081,Primary,Montrose Primary School,MONTROSE
,144.12987,-35.63487,Primary,Koondrook Primary School,KOONDROOK
,143.84327,-37.61571,Primary,Magpie Primary School,Magpie
,147.14325,-36.6914,Primary,Tawonga Primary School,TAWONGA
,146.23163,-38.26158,Primary,Narracan Primary School,Narracan
,145.82682,-38.17057,Primary,Drouin South Primary School,DROUIN
,147.25125,-36.46527,Primary,Eskdale Primary School,ESKDALE
,145.9997,-38.18773,Primary,Darnum Primary School,DARNUM
,145.10517,-38.24809,Primary,Moorooduc Primary School,MOOROODUC
,145.30842,-37.84951,Primary,The Basin Primary School,THE BASIN
,147.7147,-37.91128,Primary,Paynesville Primary School,PAYNESVILLE
,144.31269,-36.70505,Primary,Epsom Primary School,EPSOM
,144.92762,-37.79267,Primary,Kensington Primary School,KENSINGTON
,146.44768,-38.26819,Primary,Hazelwood North Primary School,HAZELWOOD NORTH
,146.15109,-38.40049,Primary,Mirboo North Primary School,MIRBOO NORTH
,146.32891,-38.32109,Primary,Yinnar Primary School,YINNAR
,145.95536,-38.01531,Primary,Neerim South Primary School,NEERIM SOUTH
,145.04298,-37.76657,Primary,Ivanhoe Primary School,IVANHOE
,144.65498,-38.11552,Primary,Portarlington Primary School,PORTARLINGTON
,145.39427,-37.91735,Primary,Menzies Creek Primary School,MENZIES CREEK
,144.97779,-37.85812,Primary,St Kilda Park Primary School,ST KILDA
,145.80494,-38.03767,Primary,Labertouche Primary School,LABERTOUCHE
,144.70923,-37.62263,Primary,Diggers Rest Primary School,DIGGERS REST
,145.76914,-38.1141,Primary,Longwarry Primary School,LONGWARRY
,145.54532,-37.95164,Primary,Gembrook Primary School,Gembrook
,147.03995,-38.1068,Primary,Wurruk Primary School,WURRUK
,146.17734,-38.07139,Primary,Willow Grove Primary School,WILLOW GROVE
,145.59775,-37.83174,Primary,Hoddles Creek Primary School,HODDLES CREEK
,145.41476,-37.9954,Primary,Beaconsfield Upper Primary School,BEACONSFIELD UPPER
,145.43428,-36.29987,Primary,Congupna Primary School,CONGUPNA
,144.53089,-37.01952,Primary,Redesdale Mia Mia Primary School,REDESDALE
,145.03846,-37.87159,Primary,Malvern Primary School,MALVERN EAST
,145.57077,-37.7825,Primary,Launching Place Primary School,Launching Place
,144.96951,-37.80205,Primary,Carlton Gardens Primary School,CARLTON
,144.92612,-37.77432,Primary,Ascot Vale Primary School,ASCOT VALE
,146.26887,-38.38287,Primary,Boolarra Primary School,BOOLARRA
,144.909,-38.35576,Primary,Rosebud Primary School,ROSEBUD
,145.49286,-38.19483,Primary,Koo Wee Rup Primary School,KOO WEE RUP
,145.01777,-37.85219,Primary,Armadale Primary School,ARMADALE
,145.04091,-38.25711,Primary,Osborne Primary School,MOUNT MARTHA
,145.17914,-38.22402,Primary,Somerville Primary School,SOMERVILLE
,142.73946,-37.54469,Primary,Willaura Primary School,WILLAURA
,144.76111,-36.13405,Primary,Echuca East Primary School,ECHUCA
,147.99424,-37.87598,Primary,Lakes Entrance Primary School,LAKES ENTRANCE
,146.31825,-36.73819,Primary,Myrrhee Primary School,Myrrhee
,145.42206,-36.80793,Primary,Longwood Primary School,LONGWOOD
,143.71442,-38.51629,Primary,Forrest Primary School,FORREST
,145.0204,-37.77799,Primary,Fairfield Primary School,FAIRFIELD
,145.97429,-38.16574,Primary,Nilma Primary School,NILMA
,145.67415,-38.09056,Primary,Garfield Primary School,GARFIELD
,146.36481,-38.36891,Primary,Yinnar South Primary School,YINNAR SOUTH
,145.41018,-38.05828,Primary,Officer Primary School,OFFICER
,144.97254,-37.7787,Primary,Brunswick South Primary School,BRUNSWICK EAST
,148.45772,-37.70791,Primary,Orbost Primary School,ORBOST
,145.72862,-38.6312,Primary,Inverloch Primary School,INVERLOCH
,145.1009,-37.82553,Primary,Surrey Hills Primary School,SURREY HILLS
,145.47884,-35.92402,Primary,Strathmerton Primary School,STRATHMERTON
,142.32331,-36.94535,Primary,Laharum Primary School,LAHARUM
,147.73215,-35.96423,Primary,Walwa Primary School,WALWA
,144.95751,-37.8478,Primary,Middle Park Primary School,MIDDLE PARK
,145.46441,-37.77389,Primary,Seville Primary School,SEVILLE
,144.88539,-37.81475,Primary,Yarraville West Primary School,YARRAVILLE
,144.96648,-37.75505,Primary,Merri-bek Primary School,MORELAND
,146.2524,-38.11887,Primary,Tanjil South Primary School,TANJIL SOUTH
,142.60873,-37.19344,Primary,Pomonal Primary School,POMONAL
,144.99729,-37.89142,Primary,Elsternwick Primary School,BRIGHTON
,146.57134,-38.12758,Primary,Glengarry Primary School,GLENGARRY
,145.0545,-37.89074,Primary,Carnegie Primary School,CARNEGIE
,145.5694,-38.26317,Primary,Lang Lang Primary School,LANG LANG
,145.28132,-37.79317,Primary,Croydon Primary School,CROYDON
,144.90933,-37.76895,Primary,Moonee Ponds West Primary School,MOONEE PONDS
,145.19272,-37.80899,Primary,Mitcham Primary School,MITCHAM
,145.70295,-38.36862,Primary,Loch Primary School,LOCH
,142.16049,-34.19429,Primary,Mildura Primary School,MILDURA
,145.1567,-37.81657,Primary,Blackburn Primary School,BLACKBURN
,148.434,-37.73547,Primary,Newmerella Primary School,Newmerella
,144.93381,-37.83532,Primary,Port Melbourne Primary School,PORT MELBOURNE
,145.05048,-37.82028,Primary,Auburn Primary School,HAWTHORN EAST
,145.06797,-37.98295,Primary,Mentone Primary School,MENTONE
,144.9681,-37.7804,Primary,Princes Hill Primary School,CARLTON NORTH
,145.18357,-37.70292,Primary,Research Primary School,RESEARCH
,145.23198,-38.20301,Primary,Pearcedale Primary School,PEARCEDALE
,147.4339,-37.82694,Primary,Lindenow South Primary School,Lindenow South
,146.17879,-38.28846,Primary,Thorpdale Primary School,THORPDALE
,144.79577,-37.73875,Primary,St Albans Primary School,ST ALBANS
,145.95898,-38.47893,Primary,Leongatha Primary School,LEONGATHA
,141.98405,-36.14134,Primary,Jeparit Primary School,JEPARIT
,145.00991,-37.84508,Primary,Toorak Primary School,TOORAK
,145.18155,-38.19966,Primary,Baxter Primary School,BAXTER
,146.08442,-38.69475,Primary,Fish Creek and District Primary School,Fish Creek
,145.37164,-38.04863,Primary,Beaconsfield Primary School,BEACONSFIELD
,147.85246,-37.88296,Primary,Metung Primary School,METUNG
,145.35686,-38.51315,Primary,Newhaven Primary School,Newhaven
,142.51743,-37.13748,Primary,Halls Gap Primary School,HALLS GAP
,145.43632,-36.23861,Primary,Tallygaroopna Primary School,TALLYGAROOPNA
,145.03367,-37.907,Primary,Ormond Primary School,BENTLEIGH
,145.82564,-38.43513,Primary,Korumburra Primary School,KORUMBURRA
,145.20054,-38.36048,Primary,Crib Point Primary School,CRIB POINT
,144.93726,-37.73122,Primary,Pascoe Vale Primary School,PASCOE VALE
,145.29136,-37.31692,Primary,Flowerdale Primary School,FLOWERDALE
,144.52185,-38.26399,Primary,Ocean Grove Primary School,OCEAN GROVE
,142.41826,-35.94494,Primary,Beulah Primary School,BEULAH
,144.98739,-37.77697,Primary,Merri Creek Primary School,FITZROY NORTH
,144.83101,-37.79079,Primary,Sunshine Primary School,SUNSHINE
,145.16664,-38.26071,Primary,Tyabb Primary School,TYABB
,145.00883,-37.76151,Primary,Wales Street Primary School,THORNBURY
,147.1129,-36.35518,Primary,Upper Sandy Creek Primary School,HUON
,145.00388,-37.78679,Primary,Spensley Street Primary School,CLIFTON HILL
,145.04915,-37.79647,Primary,Kew East Primary School,Kew East
,142.20464,-34.2088,Primary,Nichols Point Primary School,NICHOLS POINT
,142.15908,-34.2266,Primary,Irymple Primary School,IRYMPLE
,144.98,-37.76527,Primary,Brunswick East Primary School,BRUNSWICK EAST
,147.68022,-37.89245,Primary,Eagle Point Primary School,EAGLE POINT
,145.60608,-37.77903,Primary,Yarra Junction Primary School,Yarra Junction
,145.35455,-37.86162,Primary,Sassafras Primary School,SASSAFRAS
,145.33473,-37.88421,Primary,Ferny Creek Primary School,Ferny Creek
,145.4725,-37.53537,Primary,Toolangi Primary School,TOOLANGI
,145.274,-37.73064,Primary,Wonga Park Primary School,WONGA PARK
,145.2596,-37.4813,Primary,Kinglake West Primary School,KINGLAKE WEST
,145.33341,-38.38338,Primary,Perseverance Primary School,CRIB POINT
,145.41026,-37.87685,Primary,Monbulk Primary School,MONBULK
,143.63207,-35.46451,Primary,Lake Boga Primary School,LAKE BOGA
,145.48925,-37.60596,Primary,Chum Creek Primary School,CHUM CREEK
,145.36217,-37.83074,Primary,Mount Dandenong Primary School,KALORAMA
,145.53324,-37.68134,Primary,Badger Creek Primary School,HEALESVILLE
,145.31568,-37.50521,Primary,Middle Kinglake Primary School,KINGLAKE CENTRAL
,144.62113,-38.27443,Primary,Point Lonsdale Primary School,POINT LONSDALE
,145.71286,-38.51511,Primary,Kongwak Primary School,INVERLOCH
,145.10292,-37.927,Primary,Clarinda Primary School,CLARINDA
,145.13806,-38.04502,Primary,Chelsea Heights Primary School,CHELSEA HEIGHTS
,144.50685,-38.21788,Primary,Wallington Primary School,WALLINGTON
,145.34492,-37.90696,Primary,Tecoma Primary School,TECOMA
,144.31231,-38.32177,Primary,Torquay P-6 College,TORQUAY
,145.44243,-37.93338,Primary,Emerald Primary School,Emerald
,145.1267,-38.07812,Primary,Carrum Primary School,SEAFORD
,145.67489,-38.33624,Primary,Nyora Primary School,NYORA
,144.55879,-37.74529,Primary,Exford Primary School,MELTON SOUTH
,143.26617,-35.47623,Primary,Ultima Primary School,ULTIMA
,145.12411,-37.88127,Primary,Mount Waverley Primary School,MOUNT WAVERLEY
,148.53504,-37.79627,Primary,Marlo Primary School,MARLO
,145.07041,-37.88617,Primary,Murrumbeena Primary School,MURRUMBEENA
,145.64707,-37.76869,Primary,Wesburn Primary School,YARRA JUNCTION
,142.08485,-34.27806,Primary,Koorlong Primary School,KOORLONG
,145.24698,-37.77435,Primary,Warranwood Primary School,Warranwood
,144.88823,-37.25942,Primary,Willowmavin Primary School,WILLOWMAVIN
,145.36619,-37.8547,Primary,Olinda Primary School,Olinda
,143.39503,-38.56393,Primary,Carlisle River Primary School,CARLISLE RIVER
,144.28446,-36.79318,Primary,Spring Gully Primary School,SPRING GULLY
,149.7543,-37.55943,Pri/Sec,Mallacoota P-12 College,MALLACOOTA
,145.18985,-38.16039,Primary,Langwarrin Primary School,LANGWARRIN
,145.49638,-37.93937,Primary,Cockatoo Primary School,Cockatoo
,145.1925,-38.26195,Primary,Tyabb Railway Station Primary School,TYABB
,145.35792,-37.9312,Primary,Belgrave South Primary School,UPWEY
,144.76233,-37.70205,Primary,Sydenham - Hillside Primary School,SYDENHAM
,145.08314,-37.83096,Primary,Canterbury Primary School,CANTERBURY
,142.09314,-34.20592,Primary,The Lake Primary School,CABARITA
,146.53712,-38.19305,Primary,Grey Street Primary School (Traralgon),TRARALGON
,144.95043,-37.75984,Primary,Brunswick North Primary School,BRUNSWICK WEST
,144.97476,-37.71524,Primary,Fawkner Primary School,FAWKNER
,145.03201,-37.78352,Primary,Alphington Primary School,ALPHINGTON
,145.95991,-38.21052,Primary,Bona Vista Primary School,BONA VISTA
,145.18791,-38.0946,Primary,Banyan Fields Primary School,CARRUM DOWNS
,145.04263,-37.69451,Primary,Norris Bank Primary School,BUNDOORA
,145.47537,-37.88979,Primary,Macclesfield Primary School,Macclesfield
,145.02165,-37.96987,Primary,Black Rock Primary School,BLACK ROCK
,145.38882,-37.79093,Primary,Mount Evelyn Primary School,MOUNT EVELYN
,145.31494,-37.80211,Primary,Kilsyth Primary School,KILSYTH
,145.58864,-38.60795,Primary,Wonthaggi Primary School,WONTHAGGI
,144.88174,-37.83045,Primary,Spotswood Primary School,Spotswood
,145.32639,-38.13232,Primary,Clyde Primary School,CLYDE
,145.17391,-37.97063,Primary,Noble Park Primary School,NOBLE PARK
,145.06136,-37.80837,Primary,Deepdene Primary School,DEEPDENE
,147.65939,-37.70208,Primary,Clifton Creek Primary School,Clifton Creek
,144.3075,-36.7688,Primary,Kennington Primary School,STRATHDALE
,145.42377,-38.1458,Primary,Cardinia Primary School,CARDINIA
,145.43072,-36.3572,Primary,Grahamvale Primary School,GRAHAMVALE
,142.19062,-34.25249,Primary,Irymple South Primary School,IRYMPLE
,145.04623,-37.89377,Primary,Glen Huntly Primary School,GLEN HUNTLY
,144.77804,-36.31297,Primary,Nanneella Estate Primary School,NANNEELLA
,145.21651,-37.85626,Primary,Wantirna Primary School,WANTIRNA
,145.60023,-38.59882,Primary,Wonthaggi North Primary School,WONTHAGGI
,144.57426,-37.70872,Primary,Melton South Primary School,MELTON SOUTH
,145.12231,-38.05489,Primary,Chelsea Primary School,CHELSEA
,145.00348,-37.93339,Primary,Hampton Primary School,Hampton
,144.41535,-37.79498,Primary,Balliang East Primary School,BALLIANG EAST
,145.11297,-38.03749,Primary,Edithvale Primary School,EDITHVALE
,145.44054,-36.41041,Primary,Orrvale Primary School,ORRVALE
,145.01427,-37.75452,Primary,Penders Grove Primary School,THORNBURY
,141.81405,-35.17057,Primary,Underbool Primary School,UNDERBOOL
,145.02156,-37.87211,Primary,Caulfield Junior College,CAULFIELD NORTH
,145.1305,-38.10444,Primary,Seaford Primary School,SEAFORD
,145.09737,-37.84264,Primary,Wattle Park Primary School,BURWOOD
,143.95075,-35.52884,Primary,Murrabit Group School,MURRABIT
,144.99553,-37.73737,Primary,Preston West Primary School,PRESTON
,144.99675,-37.75543,Primary,Thornbury Primary School,THORNBURY
,144.87527,-37.79487,Primary,Footscray West Primary School,WEST FOOTSCRAY
,145.40971,-37.76978,Primary,Wandin North Primary School,WANDIN NORTH
,145.01503,-37.90468,Primary,Gardenvale Primary School,BRIGHTON EAST
,145.03759,-37.98527,Primary,Beaumaris Primary School,Cromer
,145.70379,-36.38475,Primary,Currawa Primary School,Dookie Campus
,149.15302,-37.5697,Pri/Sec,Cann River P-12 College,CANN RIVER
,144.82274,-37.86771,Primary,Altona Primary School,ALTONA
,145.30138,-38.16203,Primary,Devon Meadows Primary School,DEVON MEADOWS
,145.31432,-37.8956,Primary,Upper Ferntree Gully Primary School,UPPER FERNTREE GULLY
,145.90676,-37.23397,Primary,Eildon Primary School,EILDON
,145.17168,-38.33986,Primary,Bittern Primary School,BITTERN
,144.80166,-36.58988,Primary,Colbinabbin Primary School,COLBINABBIN
,144.98802,-36.4481,Primary,Stanhope Primary School,STANHOPE
,145.19812,-37.6359,Primary,Hurstbridge Primary School,HURSTBRIDGE
,144.94762,-37.74715,Primary,Coburg West Primary School,COBURG
,144.98836,-37.8815,Primary,Elwood Primary School,ELWOOD
,145.10273,-37.81308,Primary,Mont Albert Primary School,MONT ALBERT
,145.23979,-36.5432,Primary,Dhurringile Primary School,DHURRINGILE
,145.27009,-37.54758,Primary,Strathewen Primary School,Strathewen
,145.58741,-37.7602,Primary,Don Valley Primary School,DON VALLEY
,145.00677,-37.71142,Primary,Reservoir Primary School,RESERVOIR
,146.36222,-38.16321,Primary,Yallourn North Primary School,YALLOURN NORTH
,148.05097,-37.85254,Primary,Toorloo Arm Primary School,LAKES ENTRANCE
,144.97376,-36.39811,Primary,Girgarre Primary School,GIRGARRE
,145.65099,-37.82025,Primary,Gladysdale Primary School,GLADYSDALE
,142.15239,-34.17973,Primary,Mildura West Primary School,MILDURA
,144.93299,-37.76334,Primary,Moonee Ponds Primary School,Moonee Ponds
,144.87466,-37.8126,Primary,Kingsville Primary School,YARRAVILLE
,145.37,-37.88509,Primary,Kallista Primary School,Kallista
,144.90319,-37.74152,Primary,Essendon North Primary School,Essendon North
,144.91112,-37.78068,Primary,Ascot Vale West Primary School,Ascot Vale
,145.08447,-37.84805,Primary,Hartwell Primary School,CAMBERWELL
,142.18531,-34.31157,Primary,Red Cliffs Primary School,RED CLIFFS
,145.18204,-37.66884,Primary,Wattle Glen Primary School,DIAMOND CREEK
,145.25289,-38.03041,Primary,Hampton Park Primary School,HAMPTON PARK
,143.57975,-38.33642,Primary,Colac West Primary School,Colac
,145.00505,-37.87461,Primary,Ripponlea Primary School,ST KILDA EAST
,145.1216,-37.71765,Primary,Montmorency Primary School,MONTMORENCY
,144.17557,-38.24139,Primary,Moriac Primary School,MORIAC
,145.23074,-37.79313,Primary,Ringwood North Primary School,RINGWOOD NORTH
,142.21427,-34.30511,Primary,Red Cliffs East Primary School,RED CLIFFS
,145.05611,-37.87242,Primary,Lloyd Street Primary School,MALVERN EAST
,145.29562,-37.8288,Primary,Bayswater North Primary School,BAYSWATER
,144.93548,-37.71629,Primary,Westbreen Primary School,Pascoe Vale
,144.72449,-37.8938,Pri/Sec,Point Cook Prep - Year 9 College,POINT COOK
,144.88337,-37.78775,Primary,Footscray North Primary School,WEST FOOTSCRAY
,147.1139,-38.02571,Primary,Airly Primary School,AIRLY
,145.06261,-37.8479,Primary,Camberwell South Primary School,GLEN IRIS
,145.0831,-37.99279,Primary,Parkdale Primary School,PARKDALE
,145.07764,-37.90584,Primary,Hughesdale Primary School,HUGHESDALE
,145.00556,-37.77647,Primary,Westgarth Primary School,NORTHCOTE
,145.04589,-37.83926,Primary,Auburn South Primary School,HAWTHORN EAST
,145.09976,-38.02027,Primary,Aspendale Primary School,Aspendale
,145.15087,-37.70011,Primary,Eltham North Primary School,ELTHAM NORTH
,142.45615,-38.37802,Primary,Merrivale Primary School,WARRNAMBOOL
,145.20042,-37.98074,Primary,Dandenong West Primary School,DANDENONG
,145.27223,-37.7664,Primary,Yarra Road Primary School,CROYDON NORTH
,144.89477,-37.75649,Primary,Aberfeldie Primary School,Essendon
,144.33292,-38.13597,Primary,Manifold Heights Primary School,MANIFOLD HEIGHTS
,147.88839,-37.86592,Primary,Nungurner Primary School,NUNGURNER
,145.1325,-37.9826,Primary,Dingley Primary School,DINGLEY VILLAGE
,142.14504,-34.28801,Primary,Cardross Primary School,CARDROSS
,144.81975,-37.77808,Primary,Albion Primary School,ALBION
,145.46246,-36.35805,Primary,Lemnos Primary School,LEMNOS
,145.86706,-38.70257,Primary,Tarwin Lower Primary School,TARWIN LOWER
,144.94352,-37.77058,Primary,Brunswick South West Primary School,BRUNSWICK WEST
,144.99061,-37.7477,Primary,Bell Primary School,PRESTON
,145.0916,-37.81765,Primary,Chatham Primary School,SURREY HILLS
,145.0308,-37.89525,Primary,Caulfield South Primary School,CAULFIELD SOUTH
,145.08362,-37.8622,Primary,Ashburton Primary School,ASHBURTON
,145.02677,-37.92059,Primary,Bentleigh West Primary School,BENTLEIGH
,147.17062,-38.35649,Primary,Seaspray Primary School,SEASPRAY
,144.19184,-38.39678,Primary,Anglesea Primary School,ANGLESEA
,145.11622,-37.70831,Primary,Briar Hill Primary School,BRIAR HILL
,145.40507,-36.2772,Primary,Zeerust Primary School,ZEERUST
,145.0528,-37.90805,Primary,McKinnon Primary School,ORMOND
,145.11644,-37.94048,Primary,Clayton South Primary School,CLAYTON SOUTH
,145.05945,-37.77459,Primary,Ivanhoe East Primary School,IVANHOE EAST
,147.13228,-38.07479,Primary,Cobains Primary School,COBAINS
,142.12679,-34.21348,Primary,Mildura South Primary School,MILDURA
,144.3792,-38.16605,Primary,Tate Street Primary School Geelong,GEELONG EAST
,144.94359,-37.75671,Primary,Brunswick North West Primary School,BRUNSWICK WEST
,145.56071,-36.22547,Primary,Katandra West Primary School,KATANDRA WEST
,145.3181,-38.0393,Primary,Fleetwood Primary School,NARRE WARREN
,145.02222,-37.95667,Primary,Sandringham East Primary School,SANDRINGHAM
,144.83991,-37.86421,Primary,Seaholme Primary School,ALTONA
,145.16461,-38.39212,Primary,Somers Primary School,SOMERS
,145.3328,-37.90287,Primary,Upwey Primary School,UPWEY
,144.95185,-37.73617,Primary,Coburg North Primary School,Coburg
,145.0629,-37.73539,Primary,Rosanna Primary School,ROSANNA
,145.23734,-37.87253,Primary,Wantirna South Primary School,WANTIRNA SOUTH
,144.917,-37.73551,Primary,Strathmore Primary School,STRATHMORE
,145.07704,-37.7967,Primary,Balwyn North Primary School,BALWYN NORTH
,145.07283,-37.87324,Primary,Solway Primary School,ASHBURTON
,146.30442,-36.35413,Primary,Wangaratta West Primary School,WANGARATTA
,147.17159,-36.7395,Primary,Mount Beauty Primary School,MOUNT BEAUTY
,144.98538,-37.73011,Primary,Newlands Primary School,East Coburg
,145.14575,-38.38878,Primary,Somers School Camp,SOMERS
,146.29279,-38.18858,Primary,Newborough Primary School,NEWBOROUGH
,146.52417,-38.18998,Primary,Traralgon (Stockdale Road) Primary School,TRARALGON
,145.39635,-36.3668,Primary,Gowrie Street Primary School Shepparton,SHEPPARTON
,144.85732,-38.36948,Primary,Tootgarook Primary School,RYE
,146.26006,-38.18319,Primary,Moe (South Street) Primary School,MOE
,144.32982,-38.17401,Primary,Roslyn Primary School,BELMONT
,144.86883,-37.84521,Primary,Newport Gardens Primary School,NEWPORT
,145.40574,-36.39009,Primary,St Georges Road Primary School Shepparton,SHEPPARTON
,145.08149,-37.8807,Primary,Malvern Valley Primary School,MALVERN EAST
,146.29376,-38.179,Primary,Newborough East Primary School,NEWBOROUGH
,144.33245,-38.12936,Primary,Herne Hill Primary School,HAMLYN HEIGHTS
,145.14553,-38.14663,Primary,Frankston East Primary School,KARINGAL CENTRE
,145.36752,-37.91143,Primary,Selby Primary School,Selby
,145.02184,-37.71998,Primary,Reservoir East Primary School,RESERVOIR
,145.04901,-37.93254,Primary,Tucker Road Bentleigh Primary School,MOORABBIN
,145.45561,-35.99856,Primary,Katunga Primary School,KATUNGA
,143.86281,-37.5401,Primary,Ballarat North Primary School,BALLARAT NORTH
,146.92714,-36.15296,Primary,Bandiana Primary School,BANDIANA MILPO
,145.09596,-37.80143,Primary,Greythorn Primary School,BALWYN NORTH
,145.93985,-38.14811,Primary,Warragul North Primary School,WARRAGUL
,142.17999,-36.71742,Primary,Horsham West and Haven Primary School,HORSHAM
,146.51536,-38.19927,Primary,Traralgon (Kosciuszko Street) Primary School,TRARALGON
,146.55149,-38.20155,Primary,Traralgon (Liddiard Road) Primary School,TRARALGON
,145.25295,-37.81724,Primary,Eastwood Primary School,RINGWOOD EAST
,144.93562,-37.74572,Primary,Pascoe Vale South Primary School,Pascoe Vale South
,145.02539,-37.67008,Primary,Lalor Primary School,LALOR
,144.99023,-37.72214,Primary,Reservoir West Primary School,RESERVOIR
,145.07363,-37.92008,Primary,Coatesville Primary School,BENTLEIGH EAST
,145.15251,-37.80757,Primary,Old Orchard Primary School,BLACKBURN NORTH
,145.10236,-37.91308,Primary,Huntingdale Primary School,OAKLEIGH SOUTH
,145.12331,-37.80079,Primary,Box Hill North Primary School,BOX HILL NORTH
,145.29942,-37.87479,Primary,Ferntree Gully North Primary School,FERNTREE GULLY
,142.921,-37.27736,Primary,Ararat West Primary School,ARARAT
,144.91504,-37.71553,Primary,Oak Park Primary School,Oak Park
,145.21447,-37.97664,Primary,Dandenong North Primary School,DANDENONG
,147.6081,-37.82454,Primary,Bairnsdale West Primary School,BAIRNSDALE
,145.1799,-37.95444,Primary,Harrisfield Primary School,NOBLE PARK
,144.94848,-37.72126,Primary,Pascoe Vale North Primary School,PASCOE VALE
,145.07865,-37.78252,Primary,Belle Vue Primary School,BALWYN NORTH
,144.34199,-38.17944,Primary,Oberon Primary School,BELMONT
,146.24672,-38.18973,Primary,Moe Primary School,MOE
,144.81109,-37.74217,Primary,St Albans East Primary School,ST ALBANS
,145.41297,-36.36654,Primary,Bourchier Street Primary School Shepparton,SHEPPARTON
,143.54607,-35.33179,Primary,Swan Hill North Primary School,SWAN HILL
,144.81816,-37.79222,Primary,Sunshine Heights Primary School,SUNSHINE
,144.83719,-37.77201,Primary,Sunshine North Primary School,SUNSHINE NORTH
,145.07794,-37.74361,Primary,Banyule Primary School,ROSANNA
,141.61062,-38.36527,Primary,Portland South Primary School,PORTLAND
,145.07412,-37.73512,Primary,Rosanna Golf Links Primary School,ROSANNA
,145.06835,-37.96526,Primary,Cheltenham East Primary School,CHELTENHAM
,145.24506,-38.14794,Primary,Cranbourne South Primary School,CRANBOURNE SOUTH
,146.31718,-36.37256,Primary,Yarrunga Primary School,WANGARATTA
,145.02946,-37.73305,Primary,Preston North East Primary School,EAST PRESTON
,148.466,-37.69779,Primary,Orbost North Primary School,ORBOST
,144.93355,-37.58264,Primary,Craigieburn Primary School,CRAIGIEBURN
,142.49958,-38.38959,Primary,Warrnambool East Primary School,WARRNAMBOOL
,143.57203,-38.34363,Primary,Colac South West Primary School,COLAC
,142.0344,-37.74662,Primary,George Street Primary School - Hamilton,HAMILTON
,145.05717,-37.91461,Primary,Valkstone Primary School,BENTLEIGH EAST
,145.12697,-38.16049,Primary,Overport Primary School,FRANKSTON
,144.87443,-37.82104,Primary,Wembley Primary School,YARRAVILLE
,145.12564,-38.06649,Primary,Bonbeach Primary School,BONBEACH
,145.15815,-37.96265,Primary,Heatherhill Primary School,SPRINGVALE
,145.03661,-37.97424,Primary,Beaumaris North Primary School,BEAUMARIS
,144.3271,-38.11776,Primary,Hamlyn Banks Primary School,HAMLYN HEIGHTS
,145.19153,-37.97029,Primary,Yarraman Oaks Primary School,NOBLE PARK
,145.18009,-37.82859,Primary,Mount Pleasant Road Nunawading Primary School,BRENTFORD SQUARE
,144.90829,-37.70496,Primary,Glenroy West Primary School,GLENROY
,145.21143,-37.99895,Primary,Dandenong South Primary School,DANDENONG
,144.80201,-37.73174,Primary,St Albans North Primary School,ST ALBANS
,144.86085,-37.76784,Primary,Avondale Primary School,AVONDALE HEIGHTS
,145.15984,-37.79624,Primary,Beverley Hills Primary School,DONCASTER EAST
,146.87671,-36.12241,Primary,Wodonga West Primary School,WODONGA
,145.14717,-38.16181,Primary,Frankston Heights Primary School,FRANKSTON
,145.13525,-37.80368,Primary,Kerrimuir Primary School,KERRIMUIR
,145.25769,-37.83035,Primary,Heathmont East Primary School,HEATHMONT
,144.91598,-37.72486,Primary,Strathmore North Primary School,STRATHMORE
,145.0947,-37.92221,Primary,Oakleigh South Primary School,OAKLEIGH SOUTH
,145.0249,-37.68033,Primary,Thomastown East Primary School,THOMASTOWN
,145.11127,-37.88892,Primary,Mount Waverley Heights Primary School,Mount Waverley
,145.06942,-37.93451,Primary,East Bentleigh Primary School,Bentleigh East
,145.08692,-37.70703,Primary,Watsonia Primary School,WATSONIA
,145.08824,-37.98711,Primary,Parktone Primary School,Parkdale
,145.206,-37.81619,Primary,Antonio Park Primary School,MITCHAM
,145.0372,-37.71602,Primary,Kingsbury Primary School,KINGSBURY
,144.80049,-37.78107,Primary,Ardeer Primary School,ARDEER
,145.13574,-37.94219,Primary,Westall Primary School,CLAYTON SOUTH
,144.87957,-37.7022,Primary,Tullamarine Primary School,TULLAMARINE
,147.08383,-38.0957,Primary,Guthridge Primary School,SALE
,145.21592,-37.77952,Primary,Park Orchards Primary School,PARK ORCHARDS
,144.82304,-37.76212,Primary,Albion North Primary School,SUNSHINE NORTH
,145.1661,-37.8276,Primary,Blackburn Lake Primary School,BLACKBURN
,145.13921,-37.8271,Primary,Laburnum Primary School,Blackburn
,144.32646,-38.10121,Primary,Rollins Primary School,Bell Post Hill
,144.31977,-38.17959,Primary,Bellaire Primary School,HIGHTON
,145.14234,-37.89012,Primary,Pinewood Primary School,Pinewood
,144.92849,-37.68019,Primary,Broadmeadows Primary School,DALLAS
,144.96722,-37.69576,Primary,Moomba Park Primary School,FAWKNER
,144.86649,-37.73752,Primary,Keilor Heights Primary School,KEILOR EAST
,145.26424,-37.79379,Primary,Ainslie Parklands Primary School,BURNT BRIDGE
,145.17718,-37.84384,Primary,Parkmore Primary School,FOREST HILL
,144.41054,-38.01592,Primary,Lara Primary School,LARA
,145.23944,-37.79774,Primary,Mullum Primary School,RINGWOOD
,145.27775,-38.10406,Primary,Cranbourne Park Primary School,CRANBOURNE
,145.08999,-37.73473,Primary,Viewbank Primary School,VIEWBANK
,145.11865,-37.69228,Primary,Greenhills Primary School,GREENSBOROUGH
,145.32684,-37.91314,Primary,Upwey South Primary School,UPWEY
,143.20788,-38.49862,Primary,Simpson Primary School,SIMPSON
,145.15486,-37.71143,Primary,Eltham East Primary School,ELTHAM
,145.14693,-38.10984,Primary,Belvedere Park Primary School,SEAFORD
,145.11564,-37.86299,Primary,Essex Heights Primary School,MOUNT WAVERLEY
,145.26971,-37.88569,Primary,Mountain Gate Primary School,MOUNTAIN GATE
,145.2648,-37.8696,Primary,Fairhills Primary School,FERNTREE GULLY
,145.27848,-37.85856,Primary,Boronia West Primary School,BORONIA
,145.05697,-37.94118,Primary,Southmoor Primary School,MOORABBIN
,145.21721,-37.80423,Primary,Ringwood Heights Primary School,RINGWOOD NORTH
,145.29616,-37.79894,Primary,Ruskin Park Primary School,Croydon
,144.32686,-38.1538,Primary,Fyans Park Primary School,NEWTOWN
,145.15228,-38.13792,Primary,Karingal Primary School,KARINGAL
,145.17881,-37.88348,Primary,Mount View Primary School,GLEN WAVERLEY
,145.1433,-37.87909,Primary,Syndal South Primary School,Mount Waverley
,145.12966,-37.72493,Primary,Montmorency South Primary School,MONTMORENCY
,144.84917,-37.83698,Primary,Altona North Primary School,ALTONA NORTH
,145.16328,-37.84675,Primary,Burwood Heights Primary School,Burwood East
,142.77129,-37.06576,Primary,Stawell West Primary School,STAWELL
,145.10073,-37.7153,Primary,Watsonia Heights Primary School,GREENSBOROUGH
,143.83543,-37.52319,Primary,Forest Street Primary School,WENDOUREE
,145.32724,-37.7968,Primary,Pembroke Primary School,MOOROOLBARK
,145.1574,-38.12562,Primary,Mahogany Rise Primary School,Frankston North
,145.4059,-36.3985,Primary,Wilmot Road Primary School Shepparton,SHEPPARTON
,145.06299,-37.70734,Primary,Bundoora Primary School,WATSONIA
,144.80307,-37.75489,Primary,University Park Primary School,ST ALBANS
,144.81037,-37.74865,Primary,St Albans Heights Primary School,ST ALBANS
,143.92716,-35.74123,Primary,Kerang South Primary School,Kerang
,145.0828,-37.98001,Primary,Mentone Park Primary School,MENTONE
,145.17378,-37.80041,Primary,Donvale Primary School,Donvale
,144.33602,-38.10589,Primary,Bell Park North Primary School,GEELONG NORTH
,145.29648,-37.84457,Primary,Boronia Heights Primary School,BORONIA
,146.41542,-38.3111,Primary,Churchill Primary School,CHURCHILL
,144.31612,-38.16627,Primary,Montpellier Primary School,HIGHTON
,145.26135,-37.8549,Primary,Bayswater South Primary School,BAYSWATER
,145.13361,-38.09016,Primary,Seaford North Primary School,SEAFORD
,146.42446,-38.22793,Primary,Morwell Park Primary School,MORWELL
,145.03554,-37.67658,Primary,Lalor East Primary School,THOMASTOWN
,144.97045,-37.7956,Primary,Carlton Primary School,CARLTON
,144.33986,-38.18571,Primary,Wangala Primary School,Highton
,145.10938,-37.76061,Primary,Templestowe Valley Primary School,BULLEEN
,145.17407,-37.86702,Primary,Highvale Primary School,GLEN WAVERLEY
,145.08051,-37.7004,Primary,Watsonia North Primary School,WATSONIA NORTH
,145.21636,-37.96024,Primary,Wooranna Park Primary School,DANDENONG
,145.2514,-37.88363,Primary,Knox Park Primary School,KNOXFIELD
,145.11335,-37.79342,Primary,Birralee Primary School,DONCASTER
,142.94005,-37.27465,Primary,Ararat North Primary School,ARARAT
,145.12094,-38.17444,Primary,Derinya Primary School,FRANKSTON SOUTH
,145.00079,-37.6787,Primary,Thomastown West Primary School,THOMASTOWN
,145.23711,-37.92292,Primary,Rowville Primary School,ROWVILLE
,144.69612,-37.87288,Primary,Mossfiel Primary School,HOPPERS CROSSING
,145.11935,-37.76721,Primary,Templestowe Heights Primary School,TEMPLESTOWE LOWER
,145.15828,-38.14746,Primary,Ballam Park Primary School,Karingal Centre FRANKSTON
,144.71292,-37.5748,Primary,Sunbury West Primary School,Sunbury
,144.88658,-37.68715,Primary,Gladstone Park Primary School,GLADSTONE PARK
,145.30955,-37.77213,Primary,Manchester Primary School,MOOROOLBARK
,145.15904,-37.86708,Primary,Glendal Primary School,GLEN WAVERLEY
,145.32114,-37.77376,Primary,Bimbadeen Heights Primary School,Mooroolbark
,145.27802,-37.87582,Primary,Wattle View Primary School,FERNTREE GULLY
,145.13008,-37.70891,Primary,Sherbourne Primary School,BRIAR HILL
,145.16552,-37.78746,Primary,Donburn Primary School,DONCASTER EAST
,145.39097,-36.3985,Primary,Guthrie Street Primary School Shepparton,SHEPPARTON
,147.08906,-38.10805,Primary,Araluen Primary School,SALE
,144.76444,-37.772,Primary,Deer Park West Primary School,DEER PARK
,144.96587,-37.67433,Primary,Campbellfield Heights Primary School,CAMPBELLFIELD
,145.02854,-37.66415,Primary,Lalor North Primary School,LALOR
,144.56749,-37.67748,Primary,Melton West Primary School,MELTON
,145.1656,-37.67419,Primary,Diamond Creek East Primary School,DIAMOND CREEK
,145.17325,-37.91432,Primary,Brandon Park Primary School,Wheelers Hill
,145.25305,-37.84907,Primary,Bayswater West Primary School,BAYSWATER
,145.05875,-38.22603,Primary,Mornington Park Primary School,MORNINGTON
,146.89399,-36.13962,Primary,Wodonga South Primary School,WODONGA
,145.16162,-38.11662,Primary,Aldercourt Primary School,Belvedere Park PO Seaford
,144.99574,-37.81363,Primary,Richmond West Primary School,RICHMOND
,145.23294,-37.83641,Primary,Marlborough Primary School,HEATHMONT
,144.78121,-37.7361,Primary,Stevensville Primary School,ST ALBANS
,145.36852,-37.77958,Primary,Birmingham Primary School,LILYDALE
,144.69123,-37.88377,Primary,Woodville Primary School,HOPPERS CROSSING
,144.81407,-37.79899,Primary,Glengala Primary School,SUNSHINE WEST
,145.16681,-38.14148,Primary,Karingal Heights Primary School,KARINGAL
,145.17082,-37.97962,Primary,Wallarano Primary School,NOBLE PARK
,145.33611,-37.75518,Primary,Victoria Road Primary School,LILYDALE
,145.3357,-37.7868,Primary,Mooroolbark East Primary School,MOOROOLBARK
,144.799,-37.7884,Primary,Ardeer South Primary School,SUNSHINE WEST
,145.32291,-37.8111,Primary,Gladesville Primary School,KILSYTH
,147.27976,-36.86431,Primary,Falls Creek Primary School,Falls Creek
,144.93515,-37.78598,Primary,Debney Meadows Primary School,FLEMINGTON
,145.2952,-38.00942,Primary,Fountain Gate Primary School,NARRE WARREN
,145.26534,-37.81841,Primary,Tinternvale Primary School,BAYSWATER
,144.32895,-38.20828,Primary,Grovedale West Primary School,GROVEDALE
,145.26273,-37.88349,Primary,Kent Park Primary School,FERNTREE GULLY
,144.77403,-37.75614,Primary,Deer Park North Primary School,DEER PARK
,145.21346,-37.94411,Primary,Rosewood Downs Primary School,DANDENONG NORTH
,145.34594,-36.3801,Primary,Mooroopna Park Primary School,MOOROOPNA
,144.57266,-37.69487,Primary,Coburn Primary School,Melton South
,144.64389,-37.89406,Primary,Manorvale Primary School,WERRIBEE
,144.89837,-37.68901,Primary,Gladstone Views Primary School,GLADSTONE PARK
,145.17759,-37.90017,Primary,Wheelers Hill Primary School,WHEELERS HILL
,144.9141,-37.6814,Primary,Broadmeadows Valley Primary School,Dallas
,145.07907,-37.96278,Primary,Kingston Heath Primary School,CHELTENHAM
,145.20768,-37.74822,Primary,Andersons Creek Primary School,WARRANDYTE
,145.18428,-37.91475,Primary,Waverley Meadows Primary School,WHEELERS HILL
,145.1238,-37.983,Primary,Kingswood Primary School,DINGLEY VILLAGE
,145.18777,-37.86528,Primary,Camelot Rise Primary School,GLEN WAVERLEY
,145.18067,-37.85289,Primary,Livingstone Primary School,Vermont South
,146.41695,-38.30464,Primary,Churchill North Primary School,CHURCHILL
,144.81778,-37.75337,Primary,St Albans Meadows Primary School,ST ALBANS
,145.19288,-37.94923,Primary,Silverton Primary School,NOBLE PARK NORTH
,145.25483,-37.7893,Primary,Kalinda Primary School,RINGWOOD
,144.39501,-38.17815,Primary,Whittington Primary School,WHITTINGTON
,145.38271,-37.73256,Primary,Coldstream Primary School,Coldstream
,145.14326,-37.75627,Primary,Templestowe Park Primary School,TEMPLESTOWE
,145.26051,-38.03465,Primary,River Gum Primary School,HAMPTON PARK
,145.23616,-37.85487,Primary,Regency Park Primary School,WANTIRNA
,145.28575,-37.81008,Primary,Dorset Primary School,CROYDON
,144.8835,-38.37376,Primary,Eastbourne Primary School,CAPEL SOUND
,144.9931,-37.68259,Primary,Thomastown Meadows Primary School,THOMASTOWN
,145.1557,-38.16808,Primary,Kingsley Park Primary School,FRANKSTON
,145.24585,-37.97906,Primary,James Cook Primary School,ENDEAVOUR HILLS
,144.77536,-37.73771,Primary,Movelle Primary School,ST ALBANS
,145.10054,-38.1884,Primary,Mount Eliza North Primary School,MOUNT ELIZA
,146.86142,-36.1305,Primary,Melrose Primary School,WEST WODONGA
,144.62857,-37.89587,Primary,Iramoo Primary School,WERRIBEE
,145.17764,-37.85916,Primary,Weeden Heights Primary School,VERMONT SOUTH
,145.06588,-37.67461,Primary,Mill Park Primary School,MILL PARK
,145.15557,-37.7699,Primary,Serpell Primary School,TEMPLESTOWE
,145.01373,-38.27556,Primary,Mount Martha Primary School,MOUNT MARTHA
,144.77973,-37.86869,Primary,Altona Meadows Primary School,Altona Meadows
,145.39284,-37.89242,Primary,The Patch Primary School,THE PATCH
,145.19285,-37.90284,Primary,Jells Park Primary School,WHEELERS HILL
,144.77442,-37.74402,Primary,Albanvale Primary School,ALBANVALE
,144.72867,-37.56525,Primary,Kismet Park Primary School,SUNBURY
,145.07623,-38.18768,Primary,Kunyung Primary School,MOUNT ELIZA
,145.10987,-37.68739,Primary,Apollo Parkways Primary School,GREENSBOROUGH
,144.32788,-38.2004,Primary,Mandama Primary School,GROVEDALE
,144.91782,-37.6592,Primary,Bethal Primary School,Roxburgh Park
,145.26772,-38.10271,Primary,Cranbourne West Primary School,CRANBOURNE
,145.14479,-38.06984,Primary,Patterson Lakes Primary School,PATTERSON LAKES
,145.15444,-38.10504,Primary,Seaford Park Primary School,SEAFORD
,145.33925,-37.82495,Primary,Billanook Primary School,MONTROSE
,145.31134,-37.75007,Primary,Chirnside Park Primary School,Chirnside Park
,145.48877,-38.43123,Primary,Bass Valley Primary School,CORINELLA
,145.23229,-37.86094,Primary,Templeton Primary School,WANTIRNA SOUTH
,144.70696,-37.58114,Primary,Sunbury Heights Primary School,Sunbury
,144.43691,-37.65528,Primary,Darley Primary School,Darley
,143.81853,-37.58478,Primary,Delacombe Primary School,Redan
,145.17275,-38.29789,Primary,Wallaroo Primary School,HASTINGS
,145.26772,-37.96839,Primary,Mossgiel Park Primary School,ENDEAVOUR HILLS
,144.55421,-37.67562,Primary,Wedge Park Primary School,MELTON WEST
,146.30071,-36.34159,Primary,Appin Park Primary School,WANGARATTA
,145.17519,-37.7738,Primary,Milgate Primary School,DONCASTER EAST
,145.32743,-38.03114,Primary,Berwick Lodge Primary School,BERWICK
,145.28805,-38.15007,Primary,Botanic Ridge Primary School,Botanic Ridge
,144.92384,-37.65042,Primary,Meadow Heights Primary School,MEADOW HEIGHTS
,141.59245,-38.36224,Primary,Bundarra Primary School,PORTLAND
,145.2477,-37.96973,Primary,Chalcot Lodge Primary School,ENDEAVOUR HILLS
,145.27622,-38.08736,Primary,Rangebank Primary School,CRANBOURNE
,145.22958,-37.88228,Primary,Knox Gardens Primary School,WANTIRNA SOUTH
,145.26441,-37.98823,Primary,Southern Cross Primary School,ENDEAVOUR HILLS
,144.76754,-37.73315,Primary,Kings Park Primary School,ST ALBANS
,145.32684,-37.76651,Primary,Rolling Hills Primary School,MOOROOLBARK
,144.93585,-37.60875,Primary,Craigieburn South Primary School,CRAIGIEBURN
,145.05107,-37.6665,Primary,Findon Primary School,MILL PARK
,147.56717,-38.05819,Primary,Loch Sport Primary School,LOCH SPORT
,144.75105,-37.58052,Primary,Goonawarra Primary School,SUNBURY
,144.71078,-37.87108,Primary,Bellbridge Primary School,HOPPERS CROSSING
,145.27204,-37.77668,Primary,Croydon Hills Primary School,CROYDON HILLS
,144.58632,-37.67057,Primary,Kurunjang Primary School,MELTON
,145.2025,-38.15092,Primary,Langwarrin Park Primary School,LANGWARRIN
,144.79377,-37.70965,Primary,Taylors Lakes Primary School,Taylors Lakes
,145.13984,-37.68998,Primary,Glen Katherine Primary School,ELTHAM NORTH
,144.99907,-37.82957,Primary,Richmond Primary School,RICHMOND
,145.00748,-37.81464,Primary,Yarra Primary School,RICHMOND
,144.55314,-38.16566,Primary,Clifton Springs Primary School,DRYSDALE
,145.26246,-37.91841,Primary,Park Ridge Primary School,ROWVILLE
,145.14653,-37.84023,Primary,Orchard Grove Primary School,BLACKBURN SOUTH
,145.05309,-37.64275,Primary,Meadowglen Primary School,EPPING
,144.78492,-37.88677,Primary,Altona Green Primary School,ALTONA MEADOWS
,145.08789,-37.78944,Primary,Boroondara Park Primary School,BALWYN NORTH
,145.27435,-38.04385,Primary,Coral Park Primary School,HAMPTON PARK
,145.30412,-38.00344,Primary,Maramba Primary School,NARRE WARREN
,145.27391,-37.98056,Primary,Thomas Mitchell Primary School,ENDEAVOUR HILLS
,145.26328,-37.90532,Primary,Karoo Primary School,ROWVILLE
,144.77753,-37.71723,Primary,Mackellar Primary School,DELAHEY
,145.1168,-38.02251,Primary,Aspendale Gardens Primary School,ASPENDALE GARDENS
,145.33439,-38.04874,Primary,Berwick Fields Primary School,Berwick
,145.34777,-38.05298,Primary,Brentwood Park Primary School,BERWICK
,145.00257,-37.60984,Primary,Edgars Creek Primary School,Wollert
,144.54755,-37.78994,Primary,Eynesbury Primary School,Eynesbury
,144.67569,-37.86739,Primary,Cambridge Primary School,WERRIBEE
,145.19245,-38.10442,Primary,Rowellyn Park Primary School,CARRUM DOWNS
,144.69102,-37.85984,Pri/Sec,Baden Powell P-9 College,HOPPERS CROSSING DC
,145.20502,-38.13568,Primary,Woodlands Primary School,LANGWARRIN
,145.05175,-37.65733,Primary,Mill Park Heights Primary School,MILL PARK
,144.79205,-37.71727,Primary,Monmia Primary School,KEILOR DOWNS
,144.7579,-37.87884,Primary,Seabrook Primary School,SEABROOK
,144.92259,-37.59178,Primary,Willmott Park Primary School,CRAIGIEBURN
,144.63788,-37.9032,Primary,Thomas Chirnside Primary School,WERRIBEE
,145.24288,-37.93392,Primary,Heany Park Primary School,ROWVILLE
,142.1339,-34.19367,Primary,Ranfurly Primary School,MILDURA
,145.27957,-38.03416,Primary,Kilberry Valley Primary School,HAMPTON PARK
,144.70458,-37.56379,Primary,Killara Primary School,SUNBURY
,144.54166,-38.26145,Primary,Surfside Primary School,OCEAN GROVE
,145.39659,-38.05488,Primary,Orchard Park Primary School,Officer
,144.63933,-37.92103,Primary,Riverwalk Primary School,Werribee
,145.31619,-38.00644,Primary,Oatlands Primary School,NARRE WARREN
,144.65953,-37.8785,Primary,Westgrove Primary School,Werribee
,145.71697,-36.63424,Primary,Peranbin Primary College,VIOLET TOWN
,144.42318,-37.65586,Primary,Pentland Primary School,Bacchus Marsh
,145.49442,-38.06063,Primary,Pakenham Hills Primary School,PAKENHAM
,145.28345,-38.08012,Primary,Courtenay Gardens Primary School,CRANBOURNE NORTH
,145.16775,-38.23003,Primary,Somerville Rise Primary School,SOMERVILLE
,143.21674,-37.93959,Pri/Sec,Derrinallum P-12 College,DERRINALLUM
,142.80955,-38.08637,Pri/Sec,Mortlake P-12 College,MORTLAKE
,141.79872,-37.85635,Primary,Branxholme-Wallacedale Community School,BRANXHOLME
,144.31968,-38.24124,Primary,Mount Duneed Regional Primary School,MOUNT DUNEED
,142.52288,-38.28599,Primary,Grasmere Primary School,GRASMERE
,141.71658,-38.25268,Primary,Narrawong District Primary School,NARRAWONG
,143.87591,-37.57297,Primary,Canadian Lead Primary School,BALLARAT MAIL CENTRE
,143.89424,-37.55542,Primary,Caledonian Primary School,BAKERY HILL
,145.37283,-38.08273,Primary,Grayling Primary School,Clyde North
,142.42708,-35.34395,Primary,Tempy Primary School,TEMPY
,146.39897,-37.95912,Primary,Rawson Primary School,RAWSON
,147.0121,-38.0235,Primary,Bundalaguah Primary School,Bundalaguah
,145.88035,-38.20464,Primary,Lardner and District Primary School,LARDNER
,146.87481,-38.05399,Primary,Nambrok Denison Primary School,NAMBROK
,146.43111,-38.66552,Primary,Welshpool and District Primary School,WELSHPOOL
,146.41206,-36.76558,Primary,Whitfield District Primary School,WHITFIELD
,146.23636,-36.61784,Primary,Greta Valley Primary School,GRETA SOUTH
,146.54454,-36.43532,Primary,Everton Primary School,Everton
,142.35779,-34.47385,Primary,Nangiloc Colignan and District Primary School,NANGILOC
,142.85352,-35.50928,Pri/Sec,Tyrrell College,SEA LAKE
,144.25723,-37.00297,Primary,Harcourt Valley Primary School,HARCOURT
,143.47891,-35.23248,Primary,Beverford District Primary School,BEVERFORD
,144.87843,-37.73085,Primary,Niddrie Primary School,NIDDRIE
,144.87884,-37.6232,Primary,Keelonith Primary School,Greenvale
,143.7804,-37.54796,Primary,Lucas Primary School,Lucas
,144.59423,-37.60627,Primary,Toolern Vale and District Primary School,TOOLERN VALE
,145.10687,-37.86288,Primary,Parkhill Primary School,ASHWOOD
,145.13174,-38.12516,Primary,Kananook Primary School,SEAFORD
,145.12521,-37.83477,Primary,Roberts McCubbin Primary School,BOX HILL SOUTH
,146.01518,-38.57934,Primary,Meeniyan Primary School,MEENIYAN
,145.56603,-38.17604,Primary,Bayles Regional Primary School,BAYLES
,145.06814,-37.95926,Primary,Le Page Primary School,CHELTENHAM
,145.5462,-38.56035,Primary,Powlett River Primary School,DALYSTON
,145.16759,-37.87472,Primary,Glen Waverley Primary School,GLEN WAVERLEY
,145.24649,-37.89148,Primary,Carrington Primary School,KNOXFIELD
,145.17289,-37.92812,Primary,Albany Rise Primary School,WAVERLEY GARDENS
,145.10878,-37.90032,Primary,Amsleigh Park Primary School,OAKLEIGH EAST
,145.25498,-37.86116,Primary,Knox Central Primary School,Boronia
,145.14135,-37.86802,Primary,Mount Waverley North Primary School,MOUNT WAVERLEY
,145.2063,-37.82958,Primary,Rangeview Primary School,MITCHAM
,141.29856,-37.03343,Pri/Sec,Edenhope College,EDENHOPE
,141.17734,-35.26557,Pri/Sec,Murrayville Community College,MURRAYVILLE
,142.31917,-38.10698,Pri/Sec,Hawkesdale P12 College,HAWKESDALE
,145.18873,-37.94284,Pri/Sec,Carwatha College P-12,NOBLE PARK
,145.16761,-37.89686,Primary,Glen Waverley South Primary School,GLEN WAVERLEY
,145.10222,-37.72156,Primary,Streeton Primary School,YALLAMBIE
,143.45374,-35.29041,Primary,Woorinen District Primary School,WOORINEN SOUTH
,143.6843,-37.64352,Primary,Woady Yaloak Primary School,SMYTHESDALE
,145.65186,-37.75279,Primary,Millwarra Primary School,WARBURTON
,146.70321,-38.29418,Primary,Gormandale And District Primary School,GORMANDALE
,144.91628,-37.63206,Primary,Roxburgh Homestead Primary School,SOMERTON
,144.39495,-38.16516,Primary,Newcomb Primary School,NEWCOMB
,144.85612,-37.79169,Primary,Dinjerra Primary School,WEST FOOTSCRAY
,144.94394,-37.7012,Primary,Belle Vue Park Primary School,GLENROY
,145.1479,-37.78161,Primary,Doncaster Gardens Primary School,DONCASTER EAST
,143.34319,-35.18608,Primary,Nyah District Primary School,NYAH WEST
,145.28692,-38.06312,Primary,Strathaird Primary School,NARRE WARREN SOUTH
,145.23763,-37.8238,Primary,Great Ryrie Primary School,Heathmont
,145.32263,-38.01557,Pri/Sec,Timbarra P-9 College,BERWICK
,144.74446,-37.69921,Primary,Parkwood Green Primary School,HILLSIDE
,145.30746,-38.06472,Primary,Hillsmeade Primary School,NARRE WARREN SOUTH
,144.9314,-37.63424,Primary,Roxburgh Park Primary School,ROXBURGH PARK
,144.74313,-37.88474,Pri/Sec,Carranballac P-9 College,Point Cook
,145.06111,-38.24595,Primary,Benton Junior College,MORNINGTON
,145.02003,-37.88805,Primary,Caulfield Primary School,CAULFIELD SOUTH
,144.9235,-37.61621,Primary,Roxburgh Rise Primary School,ROXBURGH PARK
,145.24899,-38.05239,Primary,Lynbrook Primary School,LYNBROOK
,145.12687,-37.58582,Primary,Laurimar Primary School,Doreen
,144.72565,-37.86453,Primary,Truganina South Primary School,Tarneit
,144.75458,-37.73503,Primary,Kororoit Creek Primary School,Caroline Springs
,145.00226,-37.62208,Primary,Harvest Home Primary School,Epping
,144.71909,-37.83877,Pri/Sec,Truganina P-9 College,Truganina
,144.75289,-37.74566,Primary,Burnside Primary School,Burnside
,145.34696,-38.06743,Primary,Berwick Chase Primary School,Narre Warren South
,145.439,-38.06846,Primary,Pakenham Lakeside Primary School,Officer
,144.66024,-37.85588,Primary,Davis Creek Primary School,Tarneit
,145.47008,-38.08451,Primary,Pakenham Springs Primary School,Pakenham
,144.7599,-37.71669,Primary,Taylors Hill Primary School,Caroline Springs
,145.28906,-38.08753,Primary,Cranbourne Carlisle Primary School,Cranbourne
,144.7632,-37.78927,Primary,Derrimut Primary School,Deer Park
,145.02402,-37.62844,Primary,Epping Views Primary School,Epping
,144.72467,-36.13772,Primary,Echuca Twin Rivers Primary School,Echuca
,145.30444,-38.10628,Primary,Cranbourne East Primary School,Cranbourne East
,143.8204,-37.5275,Pri/Sec,Yuille Park P-8 Community College,Wendouree
,145.25408,-38.07496,Primary,Lyndhurst Primary School,Lyndhurst
,144.90557,-37.58175,Primary,Aitken Creek Primary School,Craigieburn
,145.02272,-37.70552,Primary,Reservoir Views Primary School,Reservoir
,144.92956,-37.68754,Primary,Meadows Primary School,Broadmeadows
,145.09694,-37.61403,Primary,Mernda Park Primary School,Mernda
,144.84569,-37.78293,Primary,Sunshine Harvester Primary School,Sunshine
,145.51084,-38.06394,Primary,Pakenham Primary School,Pakenham
,144.74133,-37.90824,Pri/Sec,Alamanda K-9 College,POINT COOK
,145.16699,-37.80747,Primary,Whitehorse Primary School,Blackburn North
,144.2573,-36.7706,Primary,Golden Square Primary School,Golden Square
,145.00135,-37.66369,Primary,Lalor Gardens Primary School,Lalor
,145.18048,-37.9924,Primary,Chandler Park Primary School,Keysborough
,145.15242,-37.98263,Primary,Keysborough Primary School,Springvale South
,145.20465,-37.96505,Primary,Lyndale Greens Primary School,Dandenong North
,145.14997,-37.97105,Primary,Athol Road Primary School,SPRINGVALE SOUTH
,145.15904,-37.93926,Primary,Springvale Rise Primary School,Springvale
,145.13951,-37.95884,Primary,Spring Parks Primary School,Springvale
,144.80919,-37.71765,Primary,Keilor Views Primary School,Keilor Downs
,144.67655,-37.88487,Primary,Wyndham Park Primary School,Werribee
,144.26844,-36.73692,Primary,Lightning Reef Primary School,Nth Bendigo
,144.92504,-37.70428,Primary,Glenroy Central Primary School,Glenroy
,145.00278,-37.69667,Primary,William Ruthven Primary School,Reservoir
,144.90955,-37.57099,Primary,Newbury Primary School,Craigieburn
,144.94185,-37.6703,Primary,Dallas Brooks Community Primary School,Dallas
,142.21515,-36.71138,Primary,Horsham Primary School,Horsham
,144.60961,-37.89556,Primary,Wyndham Vale Primary School,Wyndham Vale
,145.02559,-37.64485,Primary,Epping Primary School,Epping
,145.11937,-37.59755,Pri/Sec,Hazel Glen College,Doreen
,145.32734,-38.0816,Primary,Tulliallan Primary School,Narre Warren South
,144.9309,-37.66206,Primary,Coolaroo South Primary School,Dallas
,144.33818,-38.30456,Primary,Torquay Coast Primary School,Torquay
,144.54286,-37.66636,Primary,Arnolds Creek Primary School,Melton West
,145.31981,-38.10893,Primary,Wilandra Rise Primary School,Clyde North
,144.9535,-37.82935,Primary,South Melbourne Primary School,Southbank
,145.23902,-38.11498,Primary,Barton Primary School,Cranbourne West
,145.4428,-38.07754,Primary,John Henry Primary School,Officer
,144.9627,-37.84054,Primary,South Melbourne Park Primary School,Albert Park
,145.41966,-38.07195,Primary,Bridgewood Primary School,Officer
,144.36731,-38.23261,Primary,Armstrong Creek School,Armstrong Creek
,144.10997,-38.45737,Primary,Aireys Inlet Primary School,Aireys Inlet
,144.90556,-37.60171,Primary,Aitken Hill Primary School,Craigieburn
,146.40764,-38.23167,Primary,Morwell Central Primary School,Morwell
,145.12728,-37.61564,Primary,Ashley Park Primary School,Doreen
,145.29841,-38.12014,Primary,Casey Fields Primary School,Cranbourne East
,144.32848,-38.22492,Primary,Mirripoa Primary School,Mount Duneed
,145.16132,-38.00951,Primary,Keysborough Gardens Primary School,Keysborough
,144.94055,-37.81271,Primary,Docklands Primary School,Docklands
,144.72505,-37.82878,Primary,Garrang Wilam Primary School,Truganina
,144.66623,-37.7238,Primary,Aintree Primary School,Aintree
,144.99775,-37.53707,Primary,Donnybrook Primary School,Donnybrook
,144.69701,-37.72176,Primary,Deanside Primary School,Deanside
,144.90909,-37.52861,Primary,Gaayip-Yagila Primary School,Mickleham
,144.62651,-37.87627,Primary,Riverbend Primary School,Wyndham Vale
,145.33828,-38.11488,Primary,Ramlegh Park Primary School,Clyde North
,144.58976,-37.71662,Primary,Strathtulloh Primary School,Strathtulloh
,144.95825,-37.53243,Primary,Gilgai Plains Primary School,Kalkallo
,144.99354,-37.59795,Primary,Barrawang Primary School,Wollert
,144.6081,-37.50394,Primary,Willowbank Primary School,Gisborne
,145.33155,-38.12299,Primary,Clyde Creek Primary School,Clyde
,145.02711,-37.61133,Primary,Wollert Primary School,Wollert
,145.25017,-38.09481,Primary,Quarters Primary School,Cranbourne West
,144.58403,-37.86679,Primary,Ngarri Primary School,Manor Lakes
,144.61342,-37.91097,Primary,Lollypop Creek Primary School,Werribee
,145.40499,-38.07026,Primary,Kurrun Primary School,Officer
,144.62601,-37.71533,Primary,Thornhill Park Primary School,Thornhill Park
,144.64577,-37.85261,Primary,Karwan Primary School,Tarneit
,144.68496,-37.82571,Primary,Nearnung Primary School,Tarneit
,143.50332,-38.2419,Primary,Alvie Primary School,ALVIE
,143.66051,-38.75352,Pri/Sec,Apollo Bay P-12 College,APOLLO BAY
,146.97947,-37.87959,Primary,Boisdale Consolidated School,BOISDALE
,145.6511,-35.92511,Primary,Cobram Primary School,COBRAM
,144.21342,-35.80632,Primary,Cohuna Consolidated School,COHUNA
,144.9905,-37.80298,Pri/Sec,Collingwood College,ABBOTSFORD
,142.34037,-37.63898,Primary,Dunkeld Consolidated School,DUNKELD
,144.14145,-36.37222,Pri/Sec,East Loddon P-12 College,DINGEE
,146.202,-38.65734,Primary,Foster Primary School,FOSTER
,141.48354,-36.71579,Pri/Sec,Goroke P-12 College,GOROKE
,141.61292,-38.12752,Primary,Heywood Consolidated School,HEYWOOD
,147.03877,-36.25105,Primary,Kiewa Valley Primary School,TANGAMBALANGA
,143.38305,-38.68184,Pri/Sec,Lavers Hill K-12 College,LAVERS HILL
,144.53664,-36.26577,Primary,Lockington Consolidated School,LOCKINGTON
,142.88488,-35.05623,Pri/Sec,Manangatang P-12 College,MANANGATANG
,142.92139,-38.24628,Pri/Sec,Terang College,TERANG
,141.54831,-37.70637,Primary,Merino Consolidated School,MERINO
,145.0144,-36.58332,Pri/Sec,Rushworth P-12 College,RUSHWORTH
,145.07222,-37.72475,Pri/Sec,Macleod College,MACLEOD
,145.46466,-38.06537,Primary,Pakenham Consolidated School,PAKENHAM
,145.7697,-38.34248,Primary,Poowong Consolidated School,POOWONG
,142.22822,-38.38662,Primary,Port Fairy Consolidated School,PORT FAIRY
,144.99527,-38.36668,Primary,Red Hill Consolidated School,RED HILL
,145.34944,-37.86824,Pri/Sec,Sherbrooke Community School,SASSAFRAS
,144.95652,-36.25215,Primary,Tongala Primary School,TONGALA
,141.59384,-34.39041,Pri/Sec,Werrimull P-12 School,WERRIMULL
,143.14544,-38.23973,Pri/Sec,Camperdown College,CAMPERDOWN
,142.97589,-38.48406,Pri/Sec,Timboon P-12 School,TIMBOON
,145.0257,-37.76204,Pri/Sec,Virtual School Victoria,THORNBURY
,143.61877,-36.41702,Pri/Sec,Wedderburn College,WEDDERBURN
,145.02583,-37.76195,Pri/Sec,Victorian School Of Languages,THORNBURY
,145.14663,-38.17412,Secondary,Mount Erin Secondary College,FRANKSTON SOUTH
,145.11191,-37.80924,Secondary,Box Hill Senior Secondary College,MONT ALBERT NORTH
,145.00507,-37.60949,Secondary,Edgars Creek Secondary College,Wollert
,144.89025,-37.59829,Secondary,Elevation Secondary College,Craigieburn
,145.33886,-38.12955,Secondary,Clyde Secondary College,Clyde
,143.06361,-38.32404,Secondary,Cobden Technical School,COBDEN
,145.27103,-38.07539,Secondary,Lyndhurst Secondary College,CRANBOURNE
,144.15185,-37.33467,Secondary,Daylesford Secondary College,DAYLESFORD
,145.01358,-38.34264,Secondary,Dromana Secondary College,DROMANA
,144.32744,-38.2104,Secondary,Grovedale College,GROVEDALE
,142.1647,-34.23233,Secondary,Irymple Secondary College,IRYMPLE
,144.23367,-36.78865,Secondary,Crusoe 7-10 Secondary College,KANGAROO FLAT
,145.01316,-37.66691,Secondary,Peter Lalor Secondary College,EPPING
,145.34141,-37.74582,Secondary,Lilydale Heights College,Lilydale
,144.56869,-37.70836,Secondary,Staughton College,MELTON SOUTH
,142.14798,-34.19573,Secondary,Chaffey Secondary College,MILDURA
,145.0598,-37.92736,Secondary,Bentleigh Secondary College,BENTLEIGH EAST
,143.87667,-37.60796,Secondary,Mount Clear College,BALLARAT
,144.88618,-37.74668,Secondary,Rosehill Secondary College,NIDDRIE
,145.02537,-37.74007,Secondary,Northern College of the Arts and Technology,NORTHLAND
,145.04082,-37.82314,Secondary,Swinburne Senior Secondary College,HAWTHORN
,144.96477,-37.82823,Secondary,Victorian College Of The Arts Secondary School,SOUTHBANK
,142.45892,-38.35871,Secondary,Brauer Secondary College,Warrnambool
,144.65385,-37.88893,Secondary,Wyndham Central Secondary College,WERRIBEE
,144.29798,-36.73893,Secondary,Weeroona College Bendigo,BENDIGO
,145.12018,-37.51505,Secondary,Whittlesea Secondary College,WHITTLESEA
,145.70148,-37.19449,Secondary,Alexandra Secondary College,ALEXANDRA
,145.04507,-37.83988,Secondary,Auburn High School,Hawthorn East
,143.81821,-37.55452,Secondary,Ballarat High School,LAKE GARDENS
,145.07677,-37.79786,Secondary,Balwyn High School,BALWYN NORTH
,145.262,-37.83903,Secondary,Bayswater Secondary College,BAYSWATER
,143.38249,-37.43884,Secondary,Beaufort Secondary College,Beaufort
,145.03408,-37.9784,Secondary,Beaumaris Secondary College,Beaumaris
,146.69076,-36.34722,Secondary,Beechworth Secondary College,Beechworth
,144.33056,-38.17565,Secondary,Belmont High School,BELMONT
,144.27928,-36.7553,Secondary,Bendigo Senior Secondary College,BENDIGO
,145.36544,-38.0314,Secondary,Berwick Secondary College,BERWICK
,145.14989,-37.81037,Secondary,Blackburn High School,BLACKBURN
,147.22537,-36.80408,Pri/Sec,Outdoor School,BOGONG
,145.13721,-37.82,Secondary,Box Hill High School,BOX HILL
,144.84754,-37.77826,Secondary,Braybrook College,BRAYBROOK
,145.16634,-37.89951,Secondary,Brentwood Secondary College,GLEN WAVERLEY
,145.01912,-37.92016,Secondary,Brighton Secondary College,BRIGHTON EAST
,145.04003,-37.20438,Secondary,Broadford Secondary College,BROADFORD
,144.89775,-37.74712,Secondary,Buckley Park College,ESSENDON
,145.07282,-37.83015,Secondary,Camberwell High School,CANTERBURY
,145.0691,-37.82029,Secondary,Canterbury Girls Secondary College,CANTERBURY
,141.38749,-37.5888,Secondary,Casterton Secondary College,CASTERTON
,145.06868,-37.95376,Secondary,Cheltenham Secondary College,MOORABBIN
,145.65412,-35.9136,Secondary,Cobram Secondary College,COBRAM
,144.22642,-35.8135,Secondary,Cohuna Secondary College,COHUNA
,145.28614,-38.10759,Secondary,Cranbourne Secondary College,CRANBOURNE
,145.24651,-38.10672,Secondary,Cranbourne West Secondary College,Cranbourne West
,145.28126,-37.78935,Secondary,Croydon Community School,Croydon
,144.93324,-37.78215,Secondary,Mount Alexander 7-12 College,FLEMINGTON
,142.03441,-36.44984,Secondary,Dimboola Memorial Secondary College,DIMBOOLA
,145.15856,-37.78213,Secondary,East Doncaster Secondary College,DONCASTER EAST
,142.97396,-36.37078,Secondary,Donald High School,DONALD
,145.13805,-37.78458,Secondary,Doncaster Secondary College,DONCASTER
,145.85098,-38.14466,Secondary,Drouin Secondary College,DROUIN
,144.26163,-36.72006,Secondary,Eaglehawk Secondary College,EAGLEHAWK
,145.14172,-37.72444,Secondary,Eltham High School,ELTHAM
,144.9852,-37.88232,Secondary,Elwood College,ELWOOD
,145.03343,-37.644,Secondary,Epping Secondary College,EPPING
,145.5648,-36.7582,Secondary,Euroa Secondary College,EUROA
,145.25904,-37.87321,Secondary,Fairhills High School,FERNTREE GULLY
,144.29759,-36.77579,Secondary,Bendigo South East 7-10 Secondary College,Strathdale
,144.93204,-37.83201,Secondary,Port Melbourne Secondary College,Port Melbourne
,144.89376,-37.79104,Secondary,Footscray High School,Footscray
,146.19741,-38.65174,Secondary,Foster Secondary College,FOSTER
,145.12895,-38.16219,Secondary,Frankston High School,FRANKSTON
,144.37373,-38.15303,Secondary,Geelong High School,EAST GEELONG
,144.34079,-38.10996,Secondary,North Geelong Secondary College,NORTH GEELONG
,144.58477,-37.49811,Secondary,Gisborne Secondary College,GISBORNE
,144.89,-37.68977,Secondary,Gladstone Park Secondary College,GLADSTONE PARK
,145.06198,-37.7075,Secondary,Bundoora Secondary College,BUNDOORA
,145.4154,-36.37207,Secondary,Greater Shepparton Secondary College,Shepparton
,145.17638,-38.30817,Secondary,Western Port Secondary College,HASTINGS
,145.53081,-37.64359,Secondary,Healesville High School,HEALESVILLE
,141.6205,-38.12927,Secondary,Heywood District Secondary College,HEYWOOD
,145.17682,-37.86541,Secondary,Highvale Secondary College,GLEN WAVERLEY
,143.9138,-35.72565,Secondary,Kerang Technical High School,KERANG
,144.92558,-37.78791,Secondary,Kensington Community High School,FLEMINGTON
,145.06336,-37.79555,Secondary,Kew High School,KEW EAST
,145.11756,-37.80219,Secondary,Koonung Secondary College,MONT ALBERT NORTH
,145.49578,-38.19709,Secondary,Koo Wee Rup Secondary College,KOO WEE RUP
,145.8039,-38.44387,Secondary,Korumburra Secondary College,KORUMBURRA
,145.05621,-36.31748,Pri/Sec,Kyabram P-12 College,KYABRAM
,144.45817,-37.25133,Secondary,Kyneton High School,KYNETON
,145.03062,-37.67266,Secondary,Lalor Secondary College,LALOR
,145.03412,-37.66077,Secondary,Lalor North Secondary College,EPPING
,145.34392,-37.7607,Secondary,Lilydale High School,LILYDALE
,143.97389,-38.53918,Pri/Sec,Lorne P-12 College,Lorne P-12 College
,145.20671,-37.95876,Secondary,Lyndale Secondary College,DANDENONG NORTH
,145.00226,-37.81648,Secondary,Lynall Hall Community School,RICHMOND
,146.98242,-37.96489,Secondary,Maffra Secondary College,MAFFRA
,146.08856,-37.06268,Secondary,Mansfield Secondary College,MANSFIELD
,144.88823,-37.77931,Secondary,Maribyrnong Secondary College,MARIBYRNONG
,144.35321,-38.14959,Secondary,Matthew Flinders Girls Secondary College,GEELONG
,144.99531,-37.83683,Secondary,Melbourne High School,SOUTH YARRA
,144.56822,-37.68175,Secondary,Melton Secondary College,MELTON
,145.0535,-37.98018,Secondary,Mentone Girls Secondary College,MENTONE
,144.90194,-37.52738,Secondary,Mickleham Secondary College,Mickleham
,142.14539,-34.198,Secondary,Mildura Senior College,MILDURA
,146.14882,-38.40018,Secondary,Mirboo North Secondary College,MIRBOO NORTH
,145.42781,-37.88318,Secondary,Monbulk College,MONBULK
,145.11361,-37.71408,Secondary,Montmorency Secondary College,MONTMORENCY
,145.31423,-37.77508,Secondary,Mooroolbark College,MOOROOLBARK
,145.09268,-38.01224,Secondary,Mordialloc College,MORDIALLOC
,147.16728,-36.74031,Secondary,Mount Beauty Secondary College,MOUNT BEAUTY
,145.09354,-38.1897,Secondary,Mount Eliza Secondary College,MOUNT ELIZA
,145.13231,-37.86909,Secondary,Mount Waverley Secondary College,MOUNT WAVERLEY
,145.04854,-37.9122,Secondary,McKinnon Secondary College,MCKINNON
,144.97186,-37.83589,Secondary,MacRobertson Girls High School,MELBOURNE
,145.20844,-36.0599,Secondary,Nathalia Secondary College,NATHALIA
,145.95668,-38.01694,Secondary,Neerim District Secondary College,NEERIM SOUTH
,144.3952,-38.17113,Secondary,Newcomb Secondary College,NEWCOMB
,144.98971,-37.77416,Secondary,Northcote High School,NORTHCOTE
,145.2376,-37.79975,Secondary,Norwood Secondary College,RINGWOOD
,145.44627,-36.07995,Secondary,Numurkah Secondary College,NUMURKAH
,144.36414,-38.23176,Secondary,Oberon High School,Armstrong Creek
,148.46635,-37.70411,Secondary,Orbost Secondary College,ORBOST
,142.32261,-35.06457,Pri/Sec,Ouyen P-12 College,OUYEN
,145.471,-38.069,Secondary,Pakenham Secondary College,PAKENHAM
,145.44402,-38.07827,Secondary,Edenbrook Secondary College,Pakenham
,145.0935,-37.9903,Secondary,Parkdale Secondary College,MORDIALLOC
,144.9355,-37.71756,Secondary,Pascoe Vale Girls Secondary College,OAK PARK
,144.99116,-37.85175,Secondary,Prahran High School,Windsor
,145.0064,-37.74169,Secondary,Preston High School,Preston
,144.96503,-37.78348,Secondary,Princes Hill Secondary College,PRINCES HILL
,144.76858,-37.91573,Secondary,Homestead Senior Secondary College,Point Cook
,144.55753,-38.19066,Secondary,Bellarine Secondary College,DRYSDALE
,141.9967,-35.89447,Pri/Sec,Rainbow P-12 College,Rainbow
,142.19545,-34.2988,Secondary,Red Cliffs Secondary College,RED CLIFFS
,145.23915,-37.81661,Secondary,Ringwood Secondary College,RINGWOOD
,145.0028,-37.81741,Secondary,Richmond High School,Richmond
,142.78155,-34.58889,Pri/Sec,Robinvale College,ROBINVALE
,144.6987,-36.35278,Secondary,Rochester Secondary College,ROCHESTER
,144.88745,-38.36762,Secondary,Rosebud Secondary College,ROSEBUD
,145.82134,-37.29493,Secondary,Rubicon Outdoor School,THORNTON
,146.4521,-36.06256,Secondary,Rutherglen High School,RUTHERGLEN
,144.77005,-37.91054,Pri/Sec,Saltwater P-9 College,Point Cook
,145.2362,-37.88864,Secondary,Scoresby Secondary College,SCORESBY
,144.80841,-37.74553,Secondary,St Albans Secondary College,ST ALBANS
,143.25094,-36.60955,Secondary,St Arnaud Secondary College,ST ARNAUD
,145.03417,-37.87398,Secondary,Oakwood School,CAULFIELD NORTH
,144.92664,-37.73695,Secondary,Strathmore Secondary College,STRATHMORE
,144.72867,-37.57428,Secondary,Sunbury College,Sunbury
,144.96234,-37.77182,Secondary,Sydney Road Community School,BRUNSWICK
,147.17267,-36.22044,Secondary,Tallangatta Secondary College,TALLANGATTA
,145.00194,-37.67872,Secondary,Thomastown Secondary College,THOMASTOWN
,146.1583,-38.21457,Secondary,Trafalgar High School,TRAFALGAR
,144.73391,-37.84298,Pri/Sec,Dohertys Creek P-9 College,Truganina
,144.95538,-37.79698,Secondary,University High School,PARKVILLE
,144.93033,-37.63041,Secondary,Roxburgh College,Somerton BC Somerton
,145.62393,-37.79209,Secondary,Upper Yarra Secondary College,Yarra Junction
,145.33548,-37.90436,Secondary,Upwey High School,UPWEY
,145.1997,-37.84412,Secondary,Vermont Secondary College,Vermont
,145.34741,-38.05369,Secondary,Kambrya College,BERWICK
,145.19766,-38.09529,Secondary,Carrum Downs Secondary College,CARRUM DOWNS
,146.30772,-36.3449,Secondary,Wangaratta High School,WANGARATTA
,144.88961,-37.6503,Secondary,Greenvale Secondary College,Greenvale
,145.22997,-37.8576,Secondary,Wantirna College,WANTIRNA
,142.3908,-36.25768,Secondary,Warracknabeal Secondary College,WARRACKNABEAL
,145.18422,-37.74827,Secondary,Warrandyte High School,Warrandyte
,145.16938,-37.93447,Secondary,Wellington Secondary College,MULGRAVE
,144.66874,-37.90554,Secondary,Werribee Secondary College,WERRIBEE
,147.605,-37.82871,Secondary,Bairnsdale Secondary College,BAIRNSDALE
,145.13658,-37.94031,Secondary,Westall Secondary College,CLAYTON SOUTH
,145.18174,-37.91013,Secondary,Wheelers Hill Secondary College,WHEELERS HILL
,144.89502,-37.86286,Secondary,Williamstown High School,WILLIAMSTOWN
,146.88105,-36.12561,Secondary,Wodonga Senior Secondary College,WODONGA
,146.68541,-38.56743,Secondary,Yarram Secondary College,YARRAM
,143.89228,-37.55912,Secondary,Woodmans Hill Secondary College,Bakery Hill
,145.40854,-37.21501,Secondary,Yea High School,YEA
,145.03801,-37.8857,Secondary,Glen Eira College,CAULFIELD EAST
,144.93595,-37.60875,Secondary,Craigieburn Secondary College,CRAIGIEBURN
,145.45874,-37.92427,Secondary,Emerald Secondary College,EMERALD
,145.02977,-37.72226,Secondary,Reservoir High School,RESERVOIR
,145.25988,-38.03486,Secondary,Hampton Park Secondary College,HAMPTON PARK
,144.69536,-37.87122,Secondary,Hoppers Crossing Secondary College,HOPPERS CROSSING
,144.81119,-37.71552,Secondary,Keilor Downs Secondary College,Taylors Lakes
,146.43279,-38.22879,Secondary,Kurnai College,Morwell BC
,144.58596,-37.67291,Secondary,Kurunjang Secondary College,MELTON
,147.99841,-37.87134,Secondary,Lakes Entrance Secondary College,LAKES ENTRANCE
,145.19018,-38.15929,Secondary,Elisabeth Murdoch College,LANGWARRIN
,144.70448,-37.58401,Secondary,Sunbury Downs Secondary College,SUNBURY
,145.16373,-37.84852,Secondary,Forest Hill College,BURWOOD EAST
,145.13474,-38.0835,Secondary,Patterson River Secondary College,SEAFORD
,145.13991,-37.68687,Secondary,St Helena Secondary College,ELTHAM NORTH
,142.78979,-37.06195,Secondary,Stawell Secondary College,STAWELL
,145.23709,-37.92389,Secondary,Rowville Secondary College,ROWVILLE
,145.59788,-38.61094,Secondary,Bass Coast College,WONTHAGGI
,145.02303,-37.95671,Secondary,Sandringham College,SANDRINGHAM
,144.98748,-37.78491,Secondary,Fitzroy High School,FITZROY NORTH
,145.10333,-37.86453,Secondary,Ashwood High School,ASHWOOD
,145.19016,-37.80711,Secondary,Mullauna Secondary College,MITCHAM
,145.96124,-38.47869,Secondary,Leongatha Secondary College,LEONGATHA
,145.1674,-37.67283,Secondary,Diamond Valley College,DIAMOND CREEK
,145.14829,-37.84789,Language,Blackburn English Language School,BURWOOD EAST
,144.9848,-37.80784,Language,Collingwood English Language School,COLLINGWOOD
,145.17817,-37.97117,Language,Noble Park English Language School,NOBLE PARK
,145.09125,-37.70849,Secondary,Greensborough Secondary College,GREENSBOROUGH
,142.92196,-37.286,Secondary,Ararat Secondary College,ARARAT
,145.06341,-37.66416,Secondary,Mill Park Secondary College,MILL PARK
,144.43306,-37.68563,Secondary,Bacchus Marsh College,BACCHUS MARSH
,144.67494,-37.85813,Pri/Sec,The Grange P-12 College,WERRIBEE
,144.72787,-37.71569,Secondary,Springside West Secondary College,Fraser Rise
,144.7944,-37.70741,Secondary,Taylors Lakes Secondary College,TAYLORS LAKES
,144.81382,-37.79316,Secondary,Sunshine College,SUNSHINE
,144.98147,-37.41839,Secondary,Wallan Secondary College,Wallan
,145.02521,-37.75649,Secondary,Thornbury High School,Thornbury
,141.59482,-38.35882,Secondary,Portland Secondary College,PORTLAND
,144.77243,-37.71946,Secondary,Copperfield College,DELAHEY
,144.88521,-37.8577,Pri/Sec,Bayside P-12 College,ALTONA NORTH
,145.08977,-37.92232,Secondary,South Oakleigh Secondary College,OAKLEIGH SOUTH
,143.55285,-35.33523,Secondary,Swan Hill College,SWAN HILL
,146.51949,-38.19142,Secondary,Traralgon College,TRARALGON
,145.05776,-38.21671,Secondary,Mornington Secondary College,MORNINGTON
,144.86971,-37.73971,Secondary,Essendon Keilor College,NIDDRIE
,144.95501,-37.7709,Secondary,Brunswick Secondary College,BRUNSWICK
,145.16211,-37.8781,Secondary,Glen Waverley Secondary College,Glen Waverley
,145.14772,-38.12612,Secondary,Monterey Secondary College,FRANKSTON NORTH
,142.49968,-38.37672,Secondary,Warrnambool College,Warrnambool
,145.08659,-37.7412,Secondary,Viewbank College,ROSANNA
,145.18237,-37.97021,Secondary,Noble Park Secondary College,NOBLE PARK
,142.01463,-37.73331,Secondary,Baimbridge College,HAMILTON
,145.31618,-37.78934,Secondary,Yarra Hills Secondary College,MOOROOLBARK
,145.2321,-37.83843,Secondary,Heathmont College,HEATHMONT
,142.1841,-36.71166,Secondary,Horsham College,HORSHAM
,145.01433,-37.82251,Secondary,Melbourne Girls College,RICHMOND
,144.32806,-38.12391,Secondary,Western Heights Secondary College,GEELONG
,146.28598,-38.17668,Secondary,Lowanna College,MOE
,145.12231,-37.76743,Secondary,Templestowe College,TEMPLESTOWE LOWER
,144.22755,-37.05044,Secondary,Castlemaine Secondary College,CASTLEMAINE
,145.92549,-38.1652,Secondary,Warragul Regional College,WARRAGUL
,143.83447,-37.51922,Secondary,Mount Rowan Secondary College,Wendouree
,143.35963,-36.27031,Pri/Sec,Charlton College,CHARLTON
,143.2291,-36.0757,Pri/Sec,Wycheproof P-12 College,WYCHEPROOF
,142.90994,-35.98438,Pri/Sec,Birchip P-12 School,BIRCHIP
,141.65886,-36.3326,Pri/Sec,Nhill College,NHILL
,147.06801,-38.10892,Secondary,Sale College,SALE
,145.15845,-38.14632,Secondary,McClelland Secondary College,FRANKSTON
,144.85404,-37.791,Language,Western English Language School,ROBINSON
,145.28508,-38.04973,Pri/Sec,Narre Warren South P-12 College,NARRE WARREN SOUTH
,144.41157,-38.01818,Secondary,Lara Secondary College,LARA
,141.24485,-36.38272,Pri/Sec,Kaniva College,KANIVA
,147.91076,-36.19294,Pri/Sec,Corryong College,CORRYONG
,143.72287,-37.04216,Pri/Sec,Maryborough Education Centre,Maryborough
,145.07568,-37.63494,Pri/Sec,The Lakes South Morang College,South Morang
,144.73282,-37.88672,Secondary,Point Cook Senior Secondary College,Point Cook
,144.60185,-37.87351,Pri/Sec,Manor Lakes P-12 College,Wyndham Vale
,144.9728,-37.7407,Secondary,Coburg High School,Coburg
,146.89056,-36.13084,Pri/Sec,Wodonga Middle Years College,Wodonga
,144.92133,-37.57864,Pri/Sec,Mount Ridley P-12 College,Craigieburn
,144.68041,-37.83335,Secondary,Tarneit Senior College,Tarneit
,144.73242,-36.13239,Secondary,Echuca College,ECHUCA
,145.12869,-37.91422,Secondary,John Monash Science School,Monash University
,144.81864,-37.86191,Pri/Sec,Altona College,Altona
,145.20901,-37.97942,Secondary,Dandenong High School,DANDENONG
,144.77263,-37.85617,Pri/Sec,Laverton P-12 College,Laverton
,144.91536,-37.68044,Secondary,Hume Central Secondary College,DALLAS
,143.5901,-38.3515,Secondary,Colac Secondary College,Colac
,145.33656,-38.0385,Secondary,Nossal High School,NARRE WARREN
,144.70075,-37.89385,Secondary,Suzanne Cory High School,Werribee
,145.15984,-37.96702,Secondary,Keysborough Secondary College,Springvale South
,145.26119,-38.0002,Secondary,Hallam Secondary College,Hallam
,145.27656,-37.97461,Secondary,Gleneagles Secondary College,Endeavour Hills
,145.29538,-38.00528,Secondary,Fountain Gate Secondary College,Hallam
,141.82362,-37.23958,Pri/Sec,Balmoral K-12 Community College,Balmoral
,146.72614,-36.54889,Pri/Sec,Myrtleford P-12 College,Myrtleford
,145.30872,-38.07313,Secondary,Alkira Secondary College,Narre Warren South
,145.1686,-38.22726,Secondary,Somerville Secondary College,Somerville
,144.66582,-37.83618,Primary,Tarneit Rise Primary School,Tarneit
,143.72695,-36.11022,Pri/Sec,Boort District P-12 School,Boort
,146.00667,-36.02144,Pri/Sec,Yarrawonga College P-12,Yarrawonga
,145.14112,-37.02984,Pri/Sec,Seymour College,Seymour
,142.07131,-34.16937,Pri/Sec,Merbein P-10 College,Merbein
,144.94736,-37.84479,Secondary,Albert Park College,Albert Park
,145.05865,-37.72897,Pri/Sec,Charles La Trobe P-12 College,Macleod West
,144.7949,-37.75552,Secondary,Victoria University Secondary College,St Albans
,147.72403,-37.26684,Pri/Sec,Swifts Creek P-12 School,Swifts Creek
,144.925,-37.7047,Secondary,Glenroy Secondary College,Glenroy
,144.97186,-37.70271,Secondary,John Fawkner Secondary College,Fawkner
,145.00277,-37.69667,Secondary,William Ruthven Secondary College,Reservoir
,145.02524,-37.60962,Secondary,Wollert Secondary College,Wollert
,145.08833,-37.60485,Pri/Sec,Mernda Central P-12 College,Mernda
,145.30603,-38.10494,Secondary,Cranbourne East Secondary College,Cranbourne
,144.72752,-37.90164,Pri/Sec,Featherbrook P-9 College,Point Cook
,143.83351,-37.58661,Pri/Sec,Phoenix P-12 Community College,Sebastopol
,144.35571,-38.07841,Pri/Sec,Northern Bay P-12 College,CORIO
,144.32386,-38.30419,Secondary,Surf Coast Secondary College,Torquay
,142.36603,-35.73487,Pri/Sec,Hopetoun P-12 College,Hopetoun
,145.24317,-37.98945,Pri/Sec,Doveton College,DOVETON
,145.41097,-38.07202,Secondary,Officer Secondary College,Officer
,144.73722,-37.74634,Pri/Sec,Brookside P-9 College,Caroline Springs
,144.73804,-37.73445,Pri/Sec,Creekside K-9 College,Caroline Springs
,144.74028,-37.73102,Secondary,Lakeview Senior College,Caroline Springs
,144.73867,-37.71118,Primary,Springside Primary School,Caroline Springs
,145.26202,-37.79552,Secondary,Melba Secondary College,Croydon
,145.29327,-37.8583,Pri/Sec,Boronia K-12 College,Boronia
,144.67982,-37.83745,Pri/Sec,Tarneit P-9 College,Tarneit
,145.96385,-36.55337,Pri/Sec,Benalla P-12 College,Benalla
,144.99612,-37.83615,Secondary,Centre for Higher Education Studies,South Yarra
,144.98214,-37.84883,Pri/Sec,Wesley College,MELBOURNE
,145.05464,-37.86145,Pri/Sec,Korowa Anglican Girls' School,GLEN IRIS
,145.06698,-37.69018,Secondary,Parade College,BUNDOORA
,144.95288,-37.80597,Secondary,Simonds Catholic College,WEST MELBOURNE
,144.997,-37.85936,Secondary,St Marys College Melbourne,ST KILDA
,143.83156,-37.55971,Secondary,St Patrick's College Ballarat,BALLARAT
,143.84715,-37.5644,Primary,St Patrick's School,BALLARAT WEST
,143.87401,-37.5617,Primary,St Alipius' Parish School,BALLARAT EAST
,142.47736,-38.37099,Secondary,Emmanuel College Warrnambool,WARRNAMBOOL
,143.82347,-37.55686,Secondary,Loreto College,BALLARAT
,146.08901,-37.05835,Primary,St Mary's School,MANSFIELD
,144.8814,-37.84003,Primary,Sacred Heart School,NEWPORT
,144.90089,-37.8635,Primary,St Mary's School,WILLIAMSTOWN
,145.03918,-37.81111,Pri/Sec,Ruyton Girls' School,KEW
,145.00489,-37.87738,Pri/Sec,Caulfield Grammar School,ELSTERNWICK
,144.94625,-37.7933,Primary,St Michaels Primary School,NORTH MELBOURNE
,146.32195,-36.35616,Primary,St Patrick's School,WANGARATTA
,144.99759,-37.85902,Primary,St Mary's School,ST KILDA EAST
,144.94763,-37.30101,Secondary,Assumption College,KILMORE
,144.93173,-37.7847,Primary,St Brendan's School,FLEMINGTON
,144.27336,-36.75344,Secondary,Catherine McAuley College,BENDIGO
,143.73642,-37.05354,Secondary,Highview College,MARYBOROUGH
,143.7368,-37.05183,Primary,St Augustine's School,MARYBOROUGH
,147.58563,-37.8414,Primary,St Mary's School,BAIRNSDALE
,143.83767,-37.57811,Primary,St Aloysius' School,REDAN
,145.03432,-37.82646,Primary,St Joseph's School,HAWTHORN
,145.05157,-37.86175,Pri/Sec,Sacre Coeur,GLEN IRIS
,144.99672,-37.77462,Primary,St Joseph's School,NORTHCOTE
,145.00377,-37.74481,Primary,Sacred Heart School,PRESTON
,146.40432,-38.23943,Primary,Sacred Heart School,MORWELL
,146.5347,-38.19516,Primary,St Michael's School,TRARALGON
,145.40765,-36.37473,Primary,St Brendan's School,SHEPPARTON
,145.14092,-37.0199,Pri/Sec,St Mary's College,SEYMOUR
,142.98517,-36.37358,Primary,St Mary's School,DONALD
,147.06233,-38.11071,Primary,St Mary's Primary School,SALE
,144.94811,-37.29939,Primary,St Patrick's Primary School,KILMORE
,144.22873,-37.5999,Primary,St Brigid's School,BALLAN
,144.0909,-37.58065,Primary,St Patrick's School,GORDON
,144.73173,-37.27876,Primary,St Mary's School,LANCEFIELD
,143.89226,-37.42851,Primary,St Augustine's School,CRESWICK
,142.09426,-37.76623,Primary,Tarrington Lutheran School,TARRINGTON
,144.2448,-36.7942,Primary,St Monica's School,KANGAROO FLAT
,145.97412,-36.55396,Primary,St Joseph's School,BENALLA
,143.96603,-37.59116,Primary,St Brendan's Primary School,DUNNSTOWN
,144.34015,-38.1495,Secondary,Sacred Heart College,NEWTOWN
,143.24686,-36.61708,Primary,St Patrick's School,ST ARNAUD
,142.15346,-34.18872,Secondary,St Joseph's College Mildura,MILDURA
,144.99678,-37.89673,Secondary,Star of the Sea College,BRIGHTON
,144.99766,-37.89794,Primary,St James' School,BRIGHTON
,145.07091,-37.92304,Primary,St Peter's School,BENTLEIGH EAST
,145.03849,-37.81395,Pri/Sec,Methodist Ladies' College,KEW
,144.25729,-36.72348,Primary,St Liborius' School,EAGLEHAWK
,143.87035,-37.61146,Secondary,Damascus College,MOUNT CLEAR
,143.83365,-37.55965,Pri/Sec,Ballarat Clarendon College,BALLARAT
,144.22096,-37.06396,Primary,St Mary's School,CASTLEMAINE
,144.45882,-37.25289,Secondary,Sacred Heart College,KYNETON
,144.53049,-37.35779,Primary,St Ambrose's School,WOODEND
,143.35105,-36.27177,Primary,St Joseph's School,CHARLTON
,145.22392,-36.43983,Primary,Sacred Heart School,TATURA
,144.98574,-37.83895,Primary,Christ Church Grammar School,SOUTH YARRA
,144.96785,-37.73893,Primary,St Paul's School,COBURG
,144.65057,-37.90127,Primary,St Andrew's School,WERRIBEE
,144.59009,-37.49091,Primary,St Brigid's School,GISBORNE
,144.7363,-37.58004,Primary,Our Lady of Mount Carmel School,SUNBURY
,146.60706,-36.14598,Primary,St Joseph's School,CHILTERN
,146.46298,-36.05042,Primary,St Mary's School,RUTHERGLEN
,143.87249,-36.57114,Primary,St Mary's School,INGLEWOOD
,145.97539,-36.55277,Secondary,FCJ College,BENALLA
,145.08033,-37.81516,Pri/Sec,Fintona Girls' School,BALWYN
,145.47453,-38.06938,Primary,St Patrick's School,PAKENHAM
,145.02509,-37.85232,Pri/Sec,Lauriston Girls' School,ARMADALE
,146.00925,-36.01072,Primary,Sacred Heart Primary School,YARRAWONGA
,145.0311,-37.81386,Pri/Sec,Xavier College,KEW
,142.28978,-37.87751,Primary,St Joseph's School,PENSHURST
,142.93777,-37.28474,Secondary,Marian College,ARARAT
,141.41363,-37.58601,Primary,Sacred Heart School,CASTERTON
,144.43486,-37.67227,Primary,St Bernard's School,BACCHUS MARSH
,142.36897,-38.29989,Primary,St Patrick's School,KOROIT
,144.39907,-38.06882,Pri/Sec,Geelong Grammar School,CORIO
,145.0355,-37.8102,Pri/Sec,Trinity Grammar School Kew,KEW
,144.97441,-37.80371,Secondary,Academy of Mary Immaculate,FITZROY
,144.97852,-37.80205,Primary,Sacred Heart School,FITZROY
,145.35775,-37.75076,Secondary,Mount Lilydale Mercy College,LILYDALE
,144.90684,-37.80116,Primary,St Monica's School,FOOTSCRAY
,144.8899,-37.8137,Primary,St Augustine's School,YARRAVILLE
,142.20399,-36.714,Primary,Ss Michael and John's Primary School,HORSHAM
,143.57693,-38.35203,Secondary,Trinity College Colac,COLAC
,143.5854,-38.33473,Primary,St Mary's School,COLAC
,145.06571,-37.98415,Secondary,Kilbreda College,MENTONE
,145.072,-38.21826,Secondary,Padua College,MORNINGTON
,144.9848,-37.83169,Pri/Sec,Melbourne Girls Grammar,SOUTH YARRA
,144.34009,-38.15242,Pri/Sec,The Geelong College,NEWTOWN
,145.40764,-36.37471,Secondary,Notre Dame College,SHEPPARTON
,146.00921,-36.00866,Secondary,Sacred Heart College,YARRAWONGA
,144.98822,-37.79034,Primary,St John's School,CLIFTON HILL
,145.4436,-36.08646,Primary,St Joseph's School,NUMURKAH
,142.48614,-38.37249,Primary,St Joseph's School,WARRNAMBOOL
,141.60595,-38.34523,Secondary,Bayview College,PORTLAND
,,,Secondary,St Ignatius College Geelong,DRYSDALE
,144.363,-38.15319,Primary,St Mary's School,GEELONG
,144.34604,-38.13484,Primary,St Patrick's School,GEELONG WEST
,145.107,-37.84856,Pri/Sec,Presbyterian Ladies' College,BURWOOD
,144.92318,-37.75966,Primary,St Monica's Primary School,MOONEE PONDS
,145.35261,-37.75273,Primary,St Patrick's School,LILYDALE
,145.14356,-37.71152,Secondary,Catholic Ladies' College Ltd,ELTHAM
,144.98639,-37.80046,Primary,St Joseph's School,COLLINGWOOD
,142.3896,-36.25408,Primary,St Mary's School,WARRACKNABEAL
,144.72583,-36.13426,Primary,St Mary's School,ECHUCA WEST
,145.03744,-37.80817,Primary,Sacred Heart School,KEW
,142.93861,-37.2855,Primary,St Mary's School,ARARAT
,144.74337,-36.11815,Secondary,St Joseph's College,ECHUCA
,142.23167,-38.38613,Primary,St Patrick's School,PORT FAIRY
,144.70117,-36.36476,Primary,St Joseph's School,ROCHESTER
,144.94287,-37.79289,Secondary,St Aloysius College,NORTH MELBOURNE
,141.59279,-38.35947,Primary,All Saints Parish School,PORTLAND
,147.06378,-38.10871,Secondary,Catholic College Sale,SALE
,145.04471,-36.30955,Pri/Sec,St Augustine's College,KYABRAM
,145.10008,-37.82032,Primary,Our Holy Redeemer School,SURREY HILLS
,144.61562,-36.49302,Primary,Our Lady of the Sacred Heart Primary,ELMORE
,146.68281,-36.36007,Primary,St Joseph's School,BEECHWORTH
,141.69473,-37.60538,Primary,St Joseph's School,COLERAINE
,143.13956,-38.235,Secondary,Mercy Regional College,CAMPERDOWN
,143.139,-38.23503,Primary,St Patrick's School,CAMPERDOWN
,144.91429,-37.7572,Secondary,St Columba's College,ESSENDON
,144.15136,-37.33724,Primary,St Michael's School,DAYLESFORD
,142.05091,-37.74114,Primary,St Mary's School,HAMILTON
,144.28421,-36.75458,Primary,St Kilian's School,BENDIGO
,145.05578,-37.80897,Pri/Sec,Genazzano FCJ College,KEW
,146.88922,-36.11702,Primary,St Augustine's School,WODONGA
,142.78726,-37.05935,Primary,St Patrick's School,STAWELL
,144.99155,-37.85955,Pri/Sec,St Michael's Grammar School,ST KILDA
,145.07016,-37.98357,Primary,St Patrick's School,MENTONE
,142.90996,-38.2398,Primary,St Thomas' School,TERANG
,145.91202,-38.15861,Primary,St Joseph's School,WARRAGUL
,144.27835,-36.76942,Primary,St Joseph's School,QUARRY HILL
,144.99694,-37.90612,Pri/Sec,Firbank Grammar School,BRIGHTON
,145.06655,-37.75764,Primary,St John's School,HEIDELBERG
,145.06759,-37.75793,Secondary,Our Lady of Mercy College,HEIDELBERG
,144.94298,-37.76229,Primary,St Joseph's School,BRUNSWICK WEST
,145.09178,-38.00804,Primary,St Brigid's School,MORDIALLOC
,143.86007,-37.54591,Primary,St Columba's School,BALLARAT NORTH
,143.83083,-37.53924,Pri/Sec,Ballarat Grammar,WENDOUREE
,144.97786,-37.77634,Primary,Our Lady Help of Christians School,BRUNSWICK EAST
,145.0471,-37.88689,Primary,St Anthony's School,GLEN HUNTLY
,145.22084,-37.99067,Primary,St Mary's School,DANDENONG
,145.00855,-37.95148,Primary,Sacred Heart School,SANDRINGHAM
,145.60341,-38.60086,Primary,St Joseph's School,WONTHAGGI
,144.91127,-37.77384,Primary,St Mary's School,ASCOT VALE
,143.91781,-35.72546,Primary,St Joseph's School,KERANG
,145.03218,-37.85768,Pri/Sec,De La Salle College,MALVERN
,144.96825,-37.75863,Primary,St Margaret Mary's School,BRUNSWICK NORTH
,142.02421,-37.7372,Pri/Sec,The Hamilton and Alexandra College,HAMILTON
,143.90299,-37.56161,Primary,St Francis Xavier School,BALLARAT
,145.9543,-38.47894,Primary,St Laurence O'Toole School,LEONGATHA
,145.82232,-38.43604,Primary,St Joseph's School,KORUMBURRA
,145.04448,-37.77252,Pri/Sec,Ivanhoe Grammar School,IVANHOE
,145.5158,-37.65868,Primary,St Brigid's School,HEALESVILLE
,145.57319,-38.07303,Primary,St James School,NAR NAR GOON
,145.03229,-37.83392,Pri/Sec,Scotch College,HAWTHORN
,145.05292,-37.87302,Primary,St Mary's School,MALVERN EAST
,145.00755,-37.92863,Pri/Sec,St Leonard's College,BRIGHTON EAST
,144.92878,-37.79558,Primary,Holy Rosary School,KENSINGTON
,144.6553,-38.26868,Primary,St Aloysius' School,QUEENSCLIFF
,145.02036,-37.78007,Primary,St Anthony's School,ALPHINGTON
,145.03116,-37.85807,Primary,St Joseph's School,MALVERN
,146.67597,-38.5569,Primary,St Mary's School,YARRAM
,144.31057,-36.72487,Primary,Holy Rosary School,WHITE HILLS
,144.98112,-37.88253,Primary,St Columba's School,ELWOOD
,144.46212,-37.25051,Primary,Our Lady of the Rosary,KYNETON
,145.25669,-37.81552,Pri/Sec,Tintern Grammar,RINGWOOD EAST
,143.5456,-35.32846,Primary,St Mary's School,SWAN HILL
,145.09346,-38.17226,Pri/Sec,Toorak College,MT ELIZA
,145.1917,-38.30344,Primary,St Mary's School,HASTINGS
,143.5188,-38.27065,Primary,St Brendan's School,CORAGULAC
,144.83556,-37.78945,Primary,Our Lady of the Immaculate Conception School,SUNSHINE
,145.00166,-37.75684,Primary,St Mary's School,THORNBURY
,142.44614,-38.3515,Primary,St John's School,DENNINGTON
,145.02127,-37.8383,Pri/Sec,St Catherine's School,TOORAK
,144.91497,-37.75991,Pri/Sec,Lowther Hall Anglican Grammar School,ESSENDON
,142.20795,-36.71731,Secondary,St Brigid's College,HORSHAM
,144.99415,-37.92011,Primary,St Joan of Arc School,BRIGHTON
,145.56987,-36.75337,Primary,St John's School,EUROA
,144.87034,-37.73215,Pri/Sec,Penleigh & Essendon Grammar School,NIDDRIE
,144.88522,-37.79582,Primary,St John's School,FOOTSCRAY
,145.65236,-35.91707,Primary,St Joseph's School,COBRAM
,145.01132,-37.87791,Pri/Sec,Shelford Girls' Grammar,CAULFIELD
,145.03876,-37.77194,Primary,Mary Immaculate School,IVANHOE
,145.15405,-36.78161,Primary,St Joseph's School,NAGAMBIE
,145.00946,-37.85246,Primary,Our Lady of Lourdes School,PRAHRAN EAST
,148.45563,-37.70917,Primary,St Joseph's School,ORBOST
,145.06812,-37.98769,Pri/Sec,Mentone Grammar School,MENTONE
,145.04672,-37.76527,Pri/Sec,Ivanhoe Girls' Grammar School,IVANHOE
,146.72693,-36.55357,Primary,St Mary's School,MYRTLEFORD
,145.04782,-37.81478,Pri/Sec,Carey Baptist Grammar School,KEW
,145.04122,-37.89952,Pri/Sec,Kilvington Grammar School,ORMOND
,145.14643,-37.99598,Pri/Sec,Haileybury College,KEYSBOROUGH
,144.91031,-37.75111,Primary,St Therese's School,ESSENDON
,145.42461,-37.21455,Primary,Sacred Heart School,YEA
,145.06279,-37.81108,Primary,Our Lady of Good Counsel School,DEEPDENE
,145.08037,-37.82918,Pri/Sec,Strathcona Baptist Girls' Grammar,CANTERBURY
,145.06346,-37.98938,Pri/Sec,Mentone Girls' Grammar School,MENTONE
,145.11859,-38.05544,Primary,St Joseph's School,CHELSEA
,147.06463,-38.09365,Pri/Sec,Gippsland Grammar,SALE
,145.01746,-37.91628,Primary,St Finbar's School,BRIGHTON EAST
,145.01489,-37.84819,Pri/Sec,Loreto Mandeville Hall,TOORAK
,145.08384,-37.83892,Primary,St Dominic's School,CAMBERWELL EAST
,145.0009,-37.93305,Primary,St Mary's School,HAMPTON
,144.70111,-36.91768,Primary,Holy Rosary School,HEATHCOTE
,144.21854,-35.80823,Primary,St Mary's School,COHUNA
,145.06641,-37.81609,Pri/Sec,Camberwell Grammar School,BALWYN
,145.20281,-38.36147,Primary,St Joseph's School,CRIB POINT
,144.99352,-37.91111,Pri/Sec,Brighton Grammar School,BRIGHTON
,144.95156,-37.74984,Primary,St Fidelis' School,MORELAND
,145.13629,-37.87674,Pri/Sec,Huntingtower School,MOUNT WAVERLEY
,145.13149,-37.81849,Primary,St Francis Xavier's School,BOX HILL
,144.82838,-37.86666,Primary,St Mary's School,ALTONA
,145.14791,-37.71612,Primary,Our Lady Help of Christians School,ELTHAM
,142.05309,-34.16686,Primary,Our Lady of the Sacred Heart School,MERBEIN
,145.1262,-38.1488,Primary,St Francis Xavier School,FRANKSTON SOUTH
,145.12992,-37.81835,Secondary,Our Lady of Sion College,KERRIMUIR
,145.00512,-37.71802,Primary,St Gabriel's School,RESERVOIR
,145.04147,-37.92283,Primary,St Paul's School,BENTLEIGH
,145.02316,-37.97592,Primary,St Joseph's School,BLACK ROCK
,144.73903,-37.57264,Secondary,Salesian College Sunbury,SUNBURY
,147.07768,-37.96726,Primary,St Patrick's School,STRATFORD
,145.11863,-37.83278,Pri/Sec,Kingswood College,BOX HILL
,146.15219,-38.20721,Primary,St Joseph's School,TRAFALGAR
,145.06527,-37.90178,Primary,St Patrick's School,MURRUMBEENA
,145.05231,-37.85736,Primary,St Roch's School,GLEN IRIS
,145.34654,-38.03535,Pri/Sec,St Margarets Berwick Grammar,BERWICK
,145.0597,-37.81821,Pri/Sec,Camberwell Girls Grammar School,CANTERBURY
,145.04981,-37.79538,Primary,St Anne's School,KEW EAST
,145.23218,-37.81642,Primary,Our Lady of Perpetual Help School,RINGWOOD
,145.12656,-37.71601,Primary,St Francis Xavier Primary School,MONTMORENCY
,144.7418,-38.34047,Primary,St Joseph's School,SORRENTO
,145.0646,-37.85009,Primary,St Cecilia's School,GLEN IRIS
,145.00529,-37.88251,Primary,St Joseph's School,ELSTERNWICK
,142.18796,-34.30235,Primary,St Joseph's School,RED CLIFFS
,145.05221,-37.81593,Pri/Sec,"Preshil, The Margaret Lyttle Memorial School",BALWYN
,145.02755,-37.65054,Primary,St Peter's School,EPPING
,145.00248,-37.77036,Secondary,Santa Maria College,NORTHCOTE
,145.08692,-37.90184,Primary,Sacred Heart School,OAKLEIGH
,144.96362,-37.71628,Primary,St Mark's School,FAWKNER
,145.29517,-37.88738,Primary,St John the Baptist School,FERNTREE GULLY
,145.1904,-37.81744,Primary,St John's School,MITCHAM
,145.35422,-36.39605,Primary,St Mary's School,MOOROOPNA
,144.99262,-37.7341,Primary,St Raphael's School,PRESTON WEST
,145.0247,-37.8354,Pri/Sec,St Kevin's College,TOORAK
,145.48527,-38.19746,Primary,St John the Baptist's School,KOO WEE RUP
,144.92413,-37.74214,Primary,St Vincent de Paul's School,STRATHMORE
,144.33186,-38.1502,Secondary,St Joseph's College Geelong,NEWTOWN
,145.15034,-37.95323,Primary,St Joseph's School,SPRINGVALE
,145.06821,-37.99116,Secondary,St Bede's College,MENTONE
,145.01857,-37.73026,Primary,Holy Name School,PRESTON EAST
,145.08258,-37.83366,Secondary,Siena College Ltd,CAMBERWELL
,144.97271,-37.74742,Primary,St Bernard's School,COBURG EAST
,144.94186,-37.73089,Primary,St Oliver Plunkett's School,PASCOE VALE
,144.87292,-37.80853,Primary,Corpus Christi School,KINGSVILLE
,144.34301,-38.15641,Primary,St Robert's School,NEWTOWN
,144.8832,-37.74939,Secondary,St Bernard's College,ESSENDON
,145.19954,-37.7918,Secondary,Whitefriars College Inc,DONVALE
,145.08248,-37.86413,Primary,St Michael's School,ASHBURTON
,143.9887,-37.5004,Primary,St Mary's School,CLARKES HILL
,145.03994,-37.92572,Secondary,Our Lady of the Sacred Heart College,BENTLEIGH
,145.0709,-37.79352,Primary,St Bede's School,BALWYN NORTH
,145.10026,-37.88273,Secondary,Salesian College Chadstone,CHADSTONE
,141.64304,-36.33541,Primary,St Patrick's School,NHILL
,144.37393,-38.16462,Primary,St Margaret's School,GEELONG EAST
,145.11777,-37.84722,Pri/Sec,Mount Scopus Memorial College,BURWOOD
,146.25356,-38.17937,Primary,St Kieran's School,MOE
,145.08268,-37.77478,Secondary,Marcellin College,BULLEEN
,145.91527,-38.15903,Secondary,Marist-Sion College,WARRAGUL
,142.15926,-34.22261,Pri/Sec,Henderson College,IRYMPLE
,144.8202,-37.78219,Primary,St Theresa's School,ALBION
,145.03412,-37.76306,Primary,St Bernadette's School,IVANHOE NORTH
,142.80202,-38.07994,Primary,St Colman's School,MORTLAKE
,145.03183,-37.9461,Primary,St Agnes' School,HIGHETT
,145.05971,-37.9655,Primary,Our Lady of the Assumption School,CHELTENHAM
,145.17005,-37.82192,Primary,Nunawading Christian College-Primary,NUNAWADING
,145.27279,-37.79749,Primary,Sacred Heart School,CROYDON
,141.30005,-37.03403,Primary,St Malachy's School,EDENHOPE
,145.31652,-38.05022,Pri/Sec,Heritage College,BERWICK
,145.71338,-37.19127,Primary,St Mary's School,ALEXANDRA
,144.9052,-37.75665,Primary,Resurrection House,ESSENDON
,145.0082,-37.8839,Pri/Sec,Adass Israel School,ELSTERNWICK
,145.01619,-37.76085,Primary,Holy Spirit School,THORNBURY EAST
,144.80005,-37.73769,Primary,Sacred Heart School,ST ALBANS
,145.15743,-37.82325,Primary,St Thomas The Apostle School,LABURNUM
,145.0112,-36.5878,Primary,St Mary's School,RUSHWORTH
,146.78427,-37.98075,Primary,St Michael's School,HEYFIELD
,144.35882,-38.09017,Primary,St Thomas Aquinas School,NORTH GEELONG
,145.04629,-37.74692,Primary,St Pius X School,HEIDELBERG WEST
,144.87773,-37.82908,Primary,St Margaret Mary's School,SPOTSWOOD
,142.04945,-37.74204,Secondary,Monivae College,HAMILTON
,145.1012,-37.87978,Primary,St Mary Magdalens School,CHADSTONE
,145.17243,-37.97171,Primary,St Anthony's School,NOBLE PARK
,145.12186,-37.92314,Primary,St Peter's School,CLAYTON
,142.36219,-35.72393,Primary,St Joseph's School,HOPETOUN
,145.00034,-37.86812,Pri/Sec,Yeshivah College,ST KILDA EAST
,144.88903,-37.74366,Primary,St John Bosco's School,NIDDRIE
,144.33833,-38.1111,Primary,Holy Family School,GEELONG NORTH
,144.32996,-38.13581,Primary,Holy Spirit Parish School,MANIFOLD HEIGHTS
,145.09263,-37.70285,Primary,St Mary's School,GREENSBOROUGH
,144.80081,-37.77941,Primary,Mother of God School,ARDEER
,144.76927,-37.76853,Primary,St Peter Chanel School,DEER PARK
,144.86196,-37.78761,Primary,Christ the King Primary School,BRAYBROOK
,144.9228,-37.70389,Primary,Corpus Christi School,GLENROY
,145.15202,-37.95907,Secondary,Killester College,SPRINGVALE
,144.80752,-37.78753,Primary,St Paul's School,SUNSHINE WEST
,144.11184,-36.05485,Primary,St Patrick's School,PYRAMID HILL
,144.33048,-38.13008,Secondary,Clonard College,HERNE HILL
,145.04104,-37.98199,Primary,Stella Maris School,BEAUMARIS
,144.29824,-36.7669,Primary,St Therese's School,KENNINGTON
,144.83528,-37.77116,Primary,St Bernadette's School,SUNSHINE NORTH
,143.84018,-37.60347,Primary,St James' School,SEBASTOPOL
,142.15224,-34.18733,Primary,Sacred Heart School,MILDURA
,145.00084,-37.86928,Pri/Sec,Beth Rivkah Ladies College,ST KILDA EAST
,144.89104,-37.7669,Primary,St Margaret's Primary School,MARIBYRNONG
,146.29159,-38.18474,Primary,Immaculate Heart of Mary School,NEWBOROUGH
,145.12963,-37.87426,Primary,Holy Family School,MOUNT WAVERLEY
,145.20582,-37.97133,Primary,St Gerard's School,DANDENONG NORTH
,145.41068,-36.39247,Primary,St Mel's School,SHEPPARTON SOUTH
,145.11139,-37.83006,Primary,Our Lady of Perpetual Succour School,SURREY HILLS
,145.05217,-37.93822,Primary,St Catherine's School,MOORABBIN
,145.08608,-37.90216,Secondary,Sacred Heart Girls' College,OAKLEIGH
,146.41548,-38.23061,Primary,St Vincent de Paul's School,MORWELL EAST
,142.03758,-36.45706,Primary,St Peter's Lutheran School,DIMBOOLA
,142.85067,-35.50183,Primary,St Mary's School,SEA LAKE
,145.61681,-37.79217,Primary,St Joseph's School,YARRA JUNCTION
,145.0192,-37.71157,Primary,St Stephen's School,RESERVOIR EAST
,148.01234,-37.87102,Primary,St Brendan's School,LAKES ENTRANCE
,145.07698,-37.73518,Primary,St Martin of Tours School,ROSANNA
,147.17342,-36.21623,Primary,St Michael's School,TALLANGATTA
,145.10575,-37.89616,Primary,Christ Our Holy Redeemer School,OAKLEIGH EAST
,144.89658,-37.75635,Primary,Our Lady of the Nativity School,ABERFELDIE
,145.22626,-37.99023,Secondary,St John's Regional College,DANDENONG
,147.58766,-37.8371,Secondary,Nagle College,BAIRNSDALE
,142.77851,-34.58471,Pri/Sec,St Mary's School,ROBINVALE
,146.32114,-36.37219,Primary,Our Lady's School,WANGARATTA
,145.17411,-37.84779,Secondary,Emmaus College,VERMONT SOUTH
,144.9237,-37.68506,Primary,St Dominic's School,BROADMEADOWS
,144.95359,-36.25266,Primary,St Patrick's School,TONGALA
,145.10325,-37.79592,Primary,St Bridget's School,BALWYN NORTH
,145.16389,-37.8868,Primary,St Leonard's School,GLEN WAVERLEY
,145.12591,-37.85165,Primary,St Scholastica's School,BENNETTSWOOD
,145.1502,-37.8711,Primary,St Christopher's School,GLEN WAVERLEY
,145.09249,-37.99047,Primary,St John Vianney's School,PARKDALE EAST
,145.1534,-37.79055,Primary,Ss Peter & Paul's School,DONCASTER EAST
,145.20875,-36.05766,Secondary,St Mary of the Angels College,NATHALIA
,145.23863,-37.9905,Primary,Holy Family School,DOVETON
,145.23494,-37.82306,Secondary,Aquinas College,RINGWOOD
,145.00663,-37.89287,Pri/Sec,Leibler Yavneh College,CAULFIELD SOUTH
,145.09069,-38.19817,Pri/Sec,Peninsula Grammar,MT ELIZA
,144.96795,-37.69816,Primary,St Matthew's School,FAWKNER NORTH
,145.15956,-37.93272,Primary,St John Vianney's School,MULGRAVE
,145.01883,-37.67237,Primary,St Luke's School,LALOR
,144.92108,-37.71885,Primary,St Francis de Sales School,OAK PARK
,145.35268,-37.90841,Primary,St Thomas More's School,BELGRAVE
,142.46583,-38.36492,Primary,St Pius X School,WARRNAMBOOL WEST
,144.88025,-37.72501,Primary,St Christopher's School,AIRPORT WEST
,143.57855,-38.35316,Primary,Sacred Heart School,ELIMINYT
,145.15878,-37.67215,Primary,Sacred Heart School,DIAMOND CREEK
,145.35357,-38.03382,Primary,St Michael's School,BERWICK
,144.89796,-37.75662,Secondary,Ave Maria College,ABERFELDIE
,145.04337,-37.84227,Pri/Sec,Bialik College,HAWTHORN
,145.03552,-37.71526,Primary,Our Lady of the Way School,KINGSBURY
,145.14671,-37.83555,Primary,St Luke the Evangelist School,BLACKBURN SOUTH
,146.3056,-36.34656,Primary,St Bernard's School,WANGARATTA
,142.47365,-36.62268,Primary,Our Lady Help of Christians School,MURTOA
,145.27291,-37.78296,Secondary,Luther College,CROYDON HILLS
,144.80613,-37.78773,Secondary,Marian College,SUNSHINE WEST
,144.81167,-37.8639,Secondary,Mount St Joseph Girls' College,ALTONA NORTH
,143.82561,-37.52544,Primary,Our Lady Help of Christians School,WENDOUREE
,145.09033,-37.7673,Primary,St Clement of Rome School,BULLEEN
,145.27481,-37.86271,Primary,St Joseph's Primary School,BORONIA
,147.89919,-36.19824,Primary,Sacred Heart School,CORRYONG
,145.35889,-37.91064,Secondary,Mater Christi College,BELGRAVE
,145.26576,-37.84898,Primary,Our Lady of Lourdes School,BAYSWATER
,145.29509,-37.89049,Secondary,St Joseph's College,FERNTREE GULLY
,144.84796,-37.82099,Primary,Annunciation School,ALTONA NORTH
,145.10226,-38.01813,Primary,St Louis de Montfort's School,ASPENDALE
,144.94494,-37.70729,Primary,St Thomas More's School,HADFIELD
,145.13326,-37.87467,Secondary,Avila College,MOUNT WAVERLEY
,145.16659,-37.80764,Primary,St Philip's School,BLACKBURN NORTH
,144.93198,-37.66574,Primary,Holy Child School,DALLAS
,144.84239,-37.83162,Secondary,Emmanuel College,ALTONA NORTH
,145.31752,-37.78791,Primary,St Peter Julian Eymard,MOOROOLBARK
,145.05722,-37.69849,Primary,St Damian's School,BUNDOORA
,145.03141,-37.65518,Secondary,St Monica's College,EPPING
,145.25816,-37.7837,Pri/Sec,Yarra Valley Grammar,RINGWOOD
,144.3931,-38.16655,Primary,Christ the King School,NEWCOMB
,144.96456,-37.7304,Secondary,Mercy College,COBURG
,145.18365,-37.84039,Primary,St Timothy's School,VERMONT
,146.97239,-37.9635,Primary,St Mary's School,MAFFRA
,145.07046,-38.22321,Primary,St Macartan's School,MORNINGTON
,145.1481,-38.14582,Primary,St John's School,FRANKSTON EAST
,145.13887,-38.13557,Secondary,John Paul College,FRANKSTON EAST
,145.14095,-38.1066,Primary,St Anne's School,SEAFORD
,145.16614,-37.9152,Secondary,Mazenod College,MULGRAVE
,144.86162,-37.75847,Primary,St Martin de Porres School,AVONDALE HEIGHTS
,145.12228,-37.7806,Primary,St Gregory the Great School,DONCASTER
,145.27803,-37.97092,Pri/Sec,Maranatha Christian School,ENDEAVOUR HILLS
,145.12287,-37.76127,Primary,St Kevin's School,TEMPLESTOWE
,145.20969,-37.83675,Primary,St James' School,VERMONT
,145.16605,-37.90812,Primary,Good Shepherd School,WHEELERS HILL
,144.6651,-37.9095,Secondary,MacKillop Catholic Regional College,WERRIBEE
,147.08331,-38.0994,Primary,St Thomas' School,SALE
,144.85169,-37.83922,Primary,St Leo the Great Primary School,ALTONA NORTH
,144.85942,-37.74424,Primary,St Peter's School,KEILOR EAST
,142.51953,-38.38525,Primary,Our Lady Help of Christians School,WARRNAMBOOL EAST
,146.72536,-36.55334,Secondary,Marian College,MYRTLEFORD
,144.77698,-37.85378,Primary,St Martin de Porres School,LAVERTON
,145.22596,-37.88984,Primary,St Jude the Apostle School,SCORESBY
,146.87264,-36.12675,Primary,St Monica's School,WODONGA WEST
,145.3671,-37.79883,Pri/Sec,Mount Evelyn Christian School/Ranges TEC,MOUNT EVELYN
,145.24881,-37.77722,Pri/Sec,Melbourne Rudolf Steiner School,WARRANWOOD
,144.27274,-36.74417,Primary,St Peter's School,BENDIGO NORTH
,145.12957,-37.98666,Primary,St Mark's School,DINGLEY
,145.16902,-37.82255,Secondary,Nunawading Christian College-Secondary,NUNAWADING
,145.19223,-37.70044,Pri/Sec,Eltham College,ELTHAM
,144.81141,-37.75644,Primary,Holy Eucharist School,ST ALBANS SOUTH
,142.15603,-34.2046,Primary,St Paul's Primary School,MILDURA
,145.21333,-37.62939,Primary,Learning Co-Operative School,HURSTBRIDGE
,144.69031,-37.87464,Primary,St Peter Apostle School,HOPPERS CROSSING
,145.19345,-37.77403,Pri/Sec,Donvale Christian College,DONVALE
,145.0012,-37.88229,Primary,Sholem Aleichem College,ELSTERNWICK
,145.0392,-37.67842,Primary,St John XXIII Primary School,THOMASTOWN EAST
,144.57598,-37.36383,Pri/Sec,Braemar College,WOODEND
,144.88946,-37.69303,Primary,School of the Good Shepherd,GLADSTONE PARK
,145.27885,-38.11164,Primary,St Agatha's School,CRANBOURNE
,145.16293,-37.98994,Primary,Resurrection School,KEYSBOROUGH
,144.58464,-37.68092,Primary,St Dominic's School,MELTON
,144.35813,-38.07203,Primary,St Francis Xavier School,CORIO
,144.76315,-37.7246,Pri/Sec,Gilson College,TAYLORS HILL
,146.31054,-36.33875,Secondary,Galen Catholic College,WANGARATTA
,145.23692,-37.79323,Primary,Holy Spirit School,RINGWOOD NORTH
,146.41571,-38.3164,Primary,Lumen Christi School,CHURCHILL
,145.17504,-37.86234,Primary,Holy Saviour Parish School,VERMONT SOUTH
,144.99772,-37.67775,Primary,St Clare's School,THOMASTOWN WEST
,141.66215,-36.32773,Primary,Nhill Lutheran School,NHILL
,144.71746,-37.56839,Primary,St Anne's School,SUNBURY
,145.17721,-37.77444,Primary,Our Lady of the Pines School,DONVALE
,145.19111,-38.15528,Primary,St Jude's School,LANGWARRIN
,144.81963,-37.73374,Primary,St Paul's Kealba Catholic School,KEALBA
,145.19888,-37.94632,Primary,St Elizabeth's School,DANDENONG NORTH
,144.99292,-37.70222,Primary,St Joseph the Worker School,RESERVOIR NORTH
,144.77539,-37.7363,Primary,Resurrection School,KINGS PARK
,144.79909,-37.73889,Secondary,Catholic Regional College St Albans,ST ALBANS
,145.37311,-38.052,Secondary,St Francis Xavier College,BEACONSFIELD
,142.21775,-36.70818,Pri/Sec,Holy Trinity Lutheran College,HORSHAM
,145.13709,-37.68407,Primary,North-Eastern Montessori School,ST HELENA
,145.2153,-37.88014,Pri/Sec,Waverley Christian College,VERMONT
,145.0105,-37.85823,Pri/Sec,The King David School,MALVERN
,144.7249,-37.85084,Pri/Sec,Westbourne Grammar School,WERRIBEE
,144.33011,-38.20252,Primary,Nazareth School,GROVEDALE
,144.82052,-37.71063,Primary,St Augustine's Primary School,KEILOR
,144.5729,-37.70966,Primary,St Anthony's School,MELTON SOUTH
,145.11911,-37.68219,Primary,St Thomas the Apostle School,GREENSBOROUGH NORTH
,145.23507,-37.85338,Primary,St Luke's School,WANTIRNA
,144.81962,-37.80028,Primary,St Peter's School,SUNSHINE SOUTH WEST
,145.05467,-37.69501,Pri/Sec,Northside Christian College,BUNDOORA
,144.99953,-37.74593,Pri/Sec,St John's College Preston,PRESTON
,145.26862,-37.78268,Primary,Good Shepherd Lutheran Primary School,CROYDON HILLS
,145.30513,-37.76357,Pri/Sec,Oxley Christian College,LILYDALE
,144.20542,-37.08849,Pri/Sec,Olivet Christian College,CAMPBELLS CREEK
,144.318,-38.09719,Pri/Sec,Covenant College,GEELONG
,146.86239,-36.12962,Secondary,Catholic College Wodonga,WODONGA
,144.8501,-37.78586,Secondary,Caroline Chisholm Catholic College,BRAYBROOK
,143.79995,-37.55349,Primary,St Thomas More School,BALLARAT WEST
,145.39586,-37.79052,Primary,St Mary's School,MOUNT EVELYN
,145.21859,-37.7733,Primary,St Anne's School,PARK ORCHARDS
,146.51105,-38.18765,Primary,St Gabriel's School,TRARALGON WEST
,144.93137,-37.5986,Primary,Our Lady's School,CRAIGIEBURN
,145.14587,-38.17205,Primary,St Augustine's School,FRANKSTON SOUTH
,145.05891,-37.66499,Primary,St Francis of Assisi School,MILL PARK
,145.08073,-37.7034,Secondary,Loyola College,WATSONIA
,144.55041,-37.67725,Secondary,St Francis Catholic College,MELTON
,145.27232,-38.48834,Pri/Sec,Newhaven College,RHYLL
,141.58984,-38.35679,Primary,St John's Lutheran School,PORTLAND
,144.31307,-38.18524,Pri/Sec,Christian College Geelong,HIGHTON
,145.33887,-37.78785,Pri/Sec,Billanook College,MOOROOLBARK
,144.97981,-37.78917,Primary,Fitzroy Community School,FITZROY NORTH
,145.25793,-37.98052,Primary,St Paul Apostle South School,ENDEAVOUR HILLS
,145.10719,-37.93489,Primary,St Andrew's School,CLAYTON SOUTH
,145.10114,-38.19773,Primary,St Thomas More's School,MOUNT ELIZA
,145.20774,-36.0586,Primary,St Francis' School,NATHALIA
,144.27158,-36.76553,Pri/Sec,Creek Street Christian College,BENDIGO
,142.04149,-37.77083,Pri/Sec,Good Shepherd College,HAMILTON
,145.13879,-37.61346,Pri/Sec,Plenty Valley Christian College,DOREEN
,144.68749,-37.85729,Primary,St James the Apostle School,HOPPERS CROSSING NORTH
,145.24533,-37.92568,Primary,St Simon's School,ROWVILLE
,144.7917,-37.87515,Primary,Queen of Peace Primary School,ALTONA MEADOWS
,145.31501,-38.02597,Primary,Don Bosco School,NARRE WARREN
,144.54016,-38.26078,Primary,Our Lady Star of the Sea School,OCEAN GROVE
,144.77101,-37.69914,Secondary,Catholic Regional College Institute of Training,SYDENHAM
,144.80506,-37.69994,Secondary,Catholic Regional College North Keilor,TAYLORS LAKES
,145.29449,-37.76375,Primary,Village School,WONGA PARK
,145.16302,-38.17863,Pri/Sec,Bayside Christian College,FRANKSTON
,142.12879,-34.2016,Pri/Sec,Trinity Lutheran College,MILDURA
,145.41558,-36.32748,Pri/Sec,Goulburn Valley Grammar School,SHEPPARTON
,145.2192,-37.86547,Pri/Sec,The Knox School,WANTIRNA SOUTH
,144.68133,-37.88132,Pri/Sec,Heathdale Christian College,WERRIBEE
,145.3638,-38.08468,Pri/Sec,Hillcrest Christian College,CLYDE NORTH
,145.93042,-38.14781,Pri/Sec,St Paul's Anglican Grammar School,WARRAGUL
,144.83586,-37.7684,Primary,Sunshine Christian School,SUNSHINE
,145.46732,-38.0619,Pri/Sec,Beaconhills College,PAKENHAM
,145.31893,-37.82914,Primary,Ghilgai School,KILSYTH
,145.31084,-37.8539,Primary,St Bernadette's Catholic Primary School,THE BASIN
,145.00324,-37.6656,Primary,St Catherine's School,LALOR WEST
,144.39058,-38.01519,Primary,St Anthony's School,LARA
,145.11454,-37.50906,Primary,St Mary's School,WHITTLESEA
,145.15431,-37.76748,Primary,St Charles Borromeo School,TEMPLESTOWE
,144.73176,-36.14482,Pri/Sec,River City Christian College,ECHUCA
,145.34623,-37.9189,Pri/Sec,Belgrave Heights Christian School,BELGRAVE HEIGHTS
,145.08282,-37.89591,Pri/Sec,Oakleigh Grammar,OAKLEIGH
,143.91342,-35.73042,Pri/Sec,Kerang Christian College,KERANG
,145.24464,-37.87387,Pri/Sec,St Andrews Christian College,KNOX CITY CENTRE
,145.87712,-38.14284,Pri/Sec,Chairo Christian School,DROUIN
,144.96612,-37.73633,Pri/Sec,Australian International Academy of Education,COBURG
,145.16798,-38.26212,Pri/Sec,Flinders Christian Community College,TYABB
,144.80435,-37.71462,Primary,St Mary MacKillop Primary School,KEILOR DOWNS
,144.5502,-37.67878,Primary,St Catherine of Siena School,MELTON WEST
,145.41206,-37.868,Primary,St Paul's School,MONBULK
,144.89754,-38.37133,Primary,Our Lady of Fatima School,ROSEBUD
,145.19051,-37.91781,Primary,St Justin's School,WHEELERS HILL
,146.88735,-36.15717,Pri/Sec,Grace Christian College Wodonga,LENEVA
,145.32174,-37.80656,Primary,St Richard's Primary School,KILSYTH
,145.24291,-37.87747,Primary,Holy Trinity School,WANTIRNA SOUTH
,144.56028,-37.70028,Pri/Sec,Melton Christian College,MELTON
,146.08574,-37.0614,Pri/Sec,Mansfield Rudolf Steiner School,MANSFIELD
,145.26266,-37.96753,Primary,St Paul Apostle North School,ENDEAVOUR HILLS
,144.66344,-37.90995,Primary,Corpus Christi School,WERRIBEE
,145.19546,-37.94023,Secondary,Nazareth College,WAVERLEY GARDENS
,144.31185,-38.32112,Primary,St Therese School,TORQUAY
,145.0194,-37.89244,Pri/Sec,Japanese School of Melbourne,CAULFIELD SOUTH
,145.96354,-38.46673,Secondary,Mary MacKillop Catholic Regional College,LEONGATHA
,142.50617,-38.36211,Pri/Sec,King's College,WARRNAMBOOL
,145.00522,-37.80366,Pri/Sec,Sophia Mundi Steiner School,ABBOTSFORD
,144.72202,-37.85265,Pri/Sec,Al-Taqwa College,HOPPERS CROSSING
,144.82318,-37.70656,Pri/Sec,Overnewton Anglican Community College,KEILOR
,145.17847,-38.10335,Primary,St Joachim's School,CARRUM DOWNS
,145.13546,-37.69844,Primary,Holy Trinity Primary School,ELTHAM NORTH
,144.88864,-37.65364,Primary,St Carlo Borromeo School,GREENVALE
,145.63116,-37.79444,Pri/Sec,Little Yarra Steiner School,YARRA JUNCTION
,143.5568,-35.34192,Secondary,St Mary MacKillop College,SWAN HILL
,145.2674,-38.03932,Primary,St Kevin's School,HAMPTON PARK
,144.43159,-37.69027,Pri/Sec,Bacchus Marsh Grammar,BACCHUS MARSH
,145.25687,-38.10841,Secondary,St Peter's College,CRANBOURNE
,145.1435,-38.0012,Pri/Sec,Lighthouse Christian College,KEYSBOROUGH
,145.03617,-37.78043,Pri/Sec,Alphington Grammar School,ALPHINGTON
,145.26724,-38.07727,Primary,St Therese's School,CRANBOURNE
,145.862,-38.13244,Primary,St Ita's School,DROUIN
,145.32507,-37.76461,Pri/Sec,Mooroolbark Grammar,MOOROOLBARK
,143.81724,-37.58019,Primary,Lumen Christi School,DELACOMBE
,144.15669,-37.08188,Pri/Sec,Castlemaine Steiner School & Kindergarten,CASTLEMAINE
,144.93121,-37.65583,Pri/Sec,St Mary's Coptic Orthodox College,DALLAS
,145.14863,-37.93904,Pri/Sec,Minaret College,SPRINGVALE
,146.84528,-36.11673,Pri/Sec,Victory Lutheran College,WODONGA WEST
,143.5465,-35.37756,Primary,Son Centre Christian College,SWAN HILL
,144.27273,-36.76261,Pri/Sec,Girton Grammar School,BENDIGO
,144.36129,-36.80447,Primary,St Francis of the Fields School,STRATHFIELDSAYE
,144.95481,-37.83616,Primary,Galilee Regional Catholic Primary School,SOUTH MELBOURNE
,145.2929,-38.1103,Pri/Sec,Casey Grammar School,CRANBOURNE EAST
,145.1684,-38.23365,Primary,St Brendan's School,SOMERVILLE
,145.31128,-37.99584,Primary,Mary MacKillop School,NARRE WARREN NORTH
,144.65866,-37.87559,Primary,Bethany Catholic Primary School,WERRIBEE NORTH
,144.31346,-36.78263,Pri/Sec,Victory Christian College,STRATHDALE
,144.93007,-37.66862,Pri/Sec,Ilim College,DALLAS
,144.91826,-37.68786,Secondary,Penola Catholic College,GLENROY
,144.93432,-37.62344,Primary,Good Samaritan Catholic Primary School,SOMERTON
,145.03133,-37.82708,Primary,Erasmus Primary School,HAWTHORN
,144.328,-38.10988,Pri/Sec,Kardinia International College,GEELONG
,144.59778,-37.45589,Primary,Holy Cross Primary School,NEW GISBORNE
,145.33695,-38.06977,Primary,St Catherine's Primary School,BERWICK
,144.6666,-37.85525,Pri/Sec,Good News Lutheran College,WERRIBEE
,144.93564,-37.68472,Pri/Sec,Sirius College,DALLAS
,144.77224,-37.7003,Primary,Emmaus Catholic Primary School,SYDENHAM
,144.70602,-37.5191,Pri/Sec,Red Rock Christian College,SUNBURY
,145.01947,-37.70438,Primary,Maharishi School of the Age of Enlightenment,BUNDOORA
,144.70206,-37.84768,Secondary,Thomas Carr College,TARNEIT
,144.55617,-38.18801,Primary,St Thomas Primary School,DRYSDALE
,145.41598,-36.35387,Pri/Sec,Shepparton Christian College Ltd,SHEPPARTON
,144.97169,-37.70518,Pri/Sec,Darul Ulum College of Victoria,FAWKNER
,145.62369,-38.08322,Pri/Sec,St Thomas Aquinas College,TYNONG
,147.57835,-37.84122,Pri/Sec,Bairnsdale Christian College,BAIRNSDALE
,145.03622,-37.73395,Pri/Sec,East Preston Islamic College,EAST PRESTON
,144.3249,-38.18552,Primary,Clairvaux Catholic School,BELMONT
,145.38821,-37.95976,Primary,Dandenong Ranges Steiner School,NARRE WARREN EAST
,144.8907,-37.62771,Pri/Sec,Aitken College,GREENVALE
,145.04517,-37.84322,Secondary,Alia College,HAWTHORN EAST
,143.8622,-37.64076,Primary,Ballarat Steiner School,BUNINYONG
,144.73744,-37.74772,Primary,Christ the Priest Catholic Primary School,CAROLINE SPRINGS
,144.27974,-38.26332,Primary,Freshwater Creek Steiner School,FRESHWATER CREEK
,144.60001,-37.45339,Pri/Sec,Gisborne Montessori School,GISBORNE
,145.17547,-38.01399,Pri/Sec,Mt Hira College,KEYSBOROUGH
,144.75334,-37.8926,Primary,Lumen Christi School,POINT COOK
,145.29799,-38.05539,Primary,Trinity Catholic Primary School,NARRE WARREN
,145.71586,-38.09326,Primary,Columba Catholic School,BUNYIP
,144.97056,-37.81154,Secondary,Stott's College,MELBOURNE
,144.5424,-37.6863,Pri/Sec,OneSchool Global Vic,MELTON WEST
,144.33029,-38.06714,Pri/Sec,Geelong Baptist College,LOVELY BANKS
,146.51425,-38.2009,Secondary,Lavalla Catholic College,TRARALGON
,142.14532,-34.24742,Pri/Sec,Mildura Christian College,IRYMPLE
,144.94274,-37.74119,Pri/Sec,Antonine College,MORELAND
,144.95442,-37.81289,Secondary,Ozford College,MELBOURNE
,144.98349,-37.87323,Pri/Sec,Yesodei HaTorah College,ELWOOD
,144.74715,-37.68792,Primary,Cana Catholic Primary School,HILLSIDE
,144.97227,-37.8103,Secondary,Holmes Grammar School,MELBOURNE
,145.41203,-36.32432,Primary,St Luke's Catholic Primary School,SHEPPARTON NORTH
,146.93993,-36.17389,Primary,"St Francis of Assisi Primary School, Wodonga",WODONGA
,145.09103,-37.64332,Pri/Sec,Marymede Catholic College,SOUTH MORANG
,144.72868,-37.89076,Primary,Stella Maris Catholic Primary School,POINT COOK
,145.45593,-38.06492,Pri/Sec,Lakeside College,PAKENHAM
,145.00824,-37.81585,Primary,Trinity Catholic School,RICHMOND
,146.69353,-36.36669,Primary,Beechworth Montessori School,BEECHWORTH
,145.03269,-38.27325,Pri/Sec,Balcombe Grammar School,MT MARTHA
,144.7396,-37.72888,Secondary,Catholic Regional College Caroline Springs,CAROLINE SPRINGS
,143.84381,-37.59292,Pri/Sec,Ballarat Christian College,SEBASTOPOL
,144.98277,-37.77883,Primary,Deutsche Schule Melbourne,NORTH FITZROY
,143.87158,-37.61258,Primary,Emmaus Catholic Primary School,MOUNT CLEAR
,144.90947,-37.61532,Secondary,Kolbe Catholic College,CRAIGIEBURN
,144.93125,-37.56798,Pri/Sec,Hume Anglican Grammar,CRAIGIEBURN
,145.3073,-38.14,Pri/Sec,Lighthouse Christian College Cranbourne,CRANBOURNE
,144.93276,-37.57522,Primary,Mother Teresa School,CRAIGIEBURN
,144.33707,-38.23046,Pri/Sec,Geelong Lutheran College,GEELONG
,144.60622,-37.87585,Primary,Our Lady of the Southern Cross,WERRIBEE
,144.16595,-37.34233,Primary,Daylesford Dharma School,DAYLESFORD
,144.73671,-37.71349,Primary,St George Preca School,CAROLINE SPRINGS
,145.0906,-37.59574,Primary,St Joseph's School,MERNDA
,145.03753,-37.62426,Pri/Sec,Al Siraat College,EPPING
,145.17465,-38.1926,Pri/Sec,Woodleigh School,LANGWARRIN SOUTH
,145.4017,-36.37766,Secondary,Shepparton ACE Secondary College,SHEPPARTON
,145.40567,-38.05462,Primary,St Brigid's School,OFFICER
,145.25248,-38.05901,Primary,St Francis de Sales Catholic Primary School,LYNBROOK
,144.76052,-37.79068,Primary,St Lawrence Catholic Primary School,DERRIMUT
,145.28649,-37.88729,Pri/Sec,Heritage College Knox,BORONIA
,144.97709,-37.83359,Pri/Sec,Melbourne Grammar School,MELBOURNE
,144.66038,-37.85424,Pri/Sec,Islamic College of Melbourne,TARNEIT
,144.7396,-37.71396,Pri/Sec,Southern Cross Grammar,CAROLINE SPRINGS
,145.14876,-38.0492,Pri/Sec,Cornish College,BANGHOLME
,145.02567,-37.88817,Pri/Sec,Melbourne Montessori School,CAULFIELD SOUTH
,144.69823,-37.84829,Primary,St Francis of Assisi Catholic Primary School,TARNEIT
,144.92926,-37.69777,Pri/Sec,Glenroy Private,GLENROY
,146.32991,-36.38595,Pri/Sec,Cathedral College Wangaratta,WANGARATTA
,145.94392,-38.54791,Primary,Koonwarra Village School,KOONWARRA
,145.03508,-37.9036,Pri/Sec,Divrei Emineh,ELSTERNWICK
,147.6078,-37.82106,Primary,Wild Cherry School,BAIRNSDALE
,145.99668,-36.55392,Pri/Sec,Australian Christian College Hume,BENALLA
,145.0126,-37.626,Primary,St Mary of the Cross MacKillop Catholic Parish Primary School,EPPING NORTH
,144.76595,-37.9088,Primary,St Mary of the Cross Catholic Primary School,POINT COOK
,145.31704,-38.11617,Primary,St Thomas the Apostle Catholic Primary School,CLYDE
,144.66571,-37.83342,Primary,St John the Apostle Catholic Primary School,WERRIBEE PLAZA
,144.72821,-37.84381,Primary,St Clare's Catholic Primary School,TRUGANINA SOUTH
,145.43271,-38.06277,Primary,St Clare's Primary School,OFFICER
,145.11522,-37.59693,Primary,St Paul the Apostle Catholic Primary School,DOREEN
,145.66006,-35.92428,Pri/Sec,Cobram Anglican Grammar School,COBRAM
,144.22169,-36.73171,Pri/Sec,Marist College Bendigo,MAIDEN GULLY
,145.11136,-37.95784,Pri/Sec,Heatherton Christian College,CLARINDA
,144.53319,-37.4457,Pri/Sec,Alice Miller School,ROMSEY
,145.14879,-37.96694,Primary,Hoa Nghiem Primary School,SPRINGVALE SOUTH
,144.56548,-37.70712,Pri/Sec,Al Iman College,MELTON SOUTH
,145.35199,-37.78489,Pri/Sec,Edinburgh College,LILYDALE
,145.31587,-37.97749,Pri/Sec,Harkaway Hills College,NARRE WARREN NORTH
,144.9052,-37.86311,Primary,Newmark Primary,WILLIAMSTOWN
,145.2016,-38.50808,Primary,Phillip Island Village School,KOONWARRA
,145.05401,-37.83071,Secondary,SEDA College (Victoria),CAMBERWELL
,143.78041,-37.54597,Primary,Siena Catholic Primary School,ALFREDTON
,144.99191,-37.86057,Pri/Sec,Cheder Levi Yitzchok Inc,ST KILDA
,144.8961,-37.58197,Primary,Oscar Romero Catholic Primary School,CRAIGIEBURN
,144.1701,-38.04693,Primary,St Mary MacKillop Catholic Primary School,BANNOCKBURN
,144.99984,-37.4241,Primary,Our Lady of the Way Catholic Primary School,WALLAN
,144.33228,-38.30332,Primary,Lisieux Catholic Primary School,TORQUAY
,145.2398,-38.4637,Primary,Our Lady Star of the Sea Catholic Primary School,COWES
,145.32148,-37.86007,Pri/Sec,Fernbrook School,THE BASIN
,145.40034,-36.43612,Pri/Sec,St Anne's College,KIALLA
,144.70532,-37.58479,Primary,Holy Trinity Catholic Primary School,SUNBURY
,145.03178,-37.61582,Primary,Glowrey Catholic Primary School,WOLLERT
,145.13932,-37.94484,Primary,Fitra Community School,CLAYTON SOUTH
,145.37876,-38.10602,Primary,Clyde Grammar,CLYDE NORTH
,144.36945,-38.24009,Primary,St Catherine of Siena Catholic Primary School,ARMSTRONG CREEK
,145.55883,-38.52856,Secondary,Village High School,WONTHAGGI
,144.35671,-38.21912,Secondary,Iona College Geelong,CHARLEMONT
,144.57797,-37.68674,Secondary,Djerriwarrh Community & Education Services | Djerriwarrh Community College,MELTON
,144.61028,-37.9033,Primary,St Josephs Catholic Primary School,WERRIBEE
,144.96665,-37.83731,Secondary,Youth2Industry College,SOUTH MELBOURNE
,145.96161,-38.14153,Primary,St Angela of the Cross Primary School,WARRAGUL
,144.92369,-37.67575,Primary,My College,DALLAS
,144.28535,-38.17178,Primary,Woodline Primary,CERES
,144.99848,-37.82191,Secondary,Ignatius Learning Centre,RICHMOND
,144.60498,-37.68243,Pri/Sec,Muhammadiyah Australia College,MELTON
,144.57246,-37.73305,Primary,St Lawrence of Brindisi Catholic Primary School,WEIR VIEWS
,145.31604,-37.97748,Primary,Lysterfield Lake College,NARRE WARREN NORTH
,145.08148,-37.64875,Secondary,Plenty River College,SOUTH MORANG
,144.9052,-37.53046,Primary,Holy Cross Catholic Primary School,MICKLEHAM
,145.31589,-37.97324,Primary,Sidrah Gardens School,NARRE WARREN NORTH
,145.29327,-37.88319,Secondary,Mountain District Community College,FERNTREE GULLY
,144.88566,-37.62974,Primary,Mary Queen of Heaven Catholic Primary School,GREENVALE
